{"restaurants":[{"name":"St-James Paris","address":{"thoroughfare":"43 av. Bugeaud","postalcode":"75116","locality":"Paris"},"link":"https://restaurant.michelin.fr/9qoy529/st-james-paris-paris-16"},{"name":"Le Belrose","address":{"thoroughfare":"Boulevard des Crêtes","postalcode":"83580","locality":"Gassin"},"link":"https://restaurant.michelin.fr/2ct3bc6/le-belrose-bertaud"},{"name":"Intuition","address":{"thoroughfare":"1 r. Alsace-Lorraine","postalcode":"50000","locality":"Saint-Lô"},"link":"https://restaurant.michelin.fr/3ffxvs0j/intuition-saint-lo"},{"name":"L'Escarbille","address":{"thoroughfare":"8 Rue de Vélizy","postalcode":"92190","locality":"Meudon"},"link":"https://restaurant.michelin.fr/2dtzs6c/lescarbille-meudon"},{"name":"L'Orangerie","address":{"thoroughfare":"31 Avenue George-V","postalcode":"75008","locality":"Paris"},"link":"https://restaurant.michelin.fr/2851286/lorangerie-paris-08"},{"name":"Hostellerie de Plaisance","address":{"thoroughfare":"5 place du Clocher","postalcode":"33330","locality":"Saint-Emilion"},"link":"https://restaurant.michelin.fr/2cp6y7n/hostellerie-de-plaisance-saint-emilion"},{"name":"Château de la Treyne","address":{"thoroughfare":"","postalcode":"46200","locality":"Lacave"},"link":"https://restaurant.michelin.fr/2c38ubh/chateau-de-la-treyne-lacave"},{"name":"Les Prés d'Eugénie - Michel Guérard","address":{"thoroughfare":"pl. de l'Impératrice","postalcode":"40320","locality":"Eugénie-les-Bains"},"link":"https://restaurant.michelin.fr/29g9pvw/les-pres-deugenie-michel-guerard-eugenie-les-bains"},{"name":"Le Carmin","address":{"thoroughfare":"4B Place Carnot","postalcode":"21200","locality":"Beaune"},"link":"https://restaurant.michelin.fr/8zb6c2d4/le-carmin-beaune"},{"name":"La Table Breizh Café","address":{"thoroughfare":"7 quai Thomas","postalcode":"35260","locality":"Cancale"},"link":"https://restaurant.michelin.fr/2f8ln9w/la-table-breizh-cafe-cancale"},{"name":"Girardin","address":{"thoroughfare":"19 Rue des Têtes","postalcode":"68000","locality":"Colmar"},"link":"https://restaurant.michelin.fr/xha7r0xl/girardin-colmar"},{"name":"Raphaël Vionnet","address":{"thoroughfare":"43 Avenue du Général Leclerc","postalcode":"74200","locality":"Thonon-les-Bains"},"link":"https://restaurant.michelin.fr/6pyhps6h/raphael-vionnet-thonon-les-bains"},{"name":"Py-r","address":{"thoroughfare":"19 descente de la Halle-aux-Poissons","postalcode":"31000","locality":"Toulouse"},"link":"https://restaurant.michelin.fr/2fdyj14/py-r-toulouse"},{"name":"Baumanière 1850","address":{"thoroughfare":"rte de Bellecôte","postalcode":"73120","locality":"Courchevel 1850"},"link":"https://restaurant.michelin.fr/2f4vonu/baumaniere-1850-courchevel-1850"},{"name":"Château de Mercuès","address":{"thoroughfare":"Route du Château","postalcode":"46090","locality":"Mercuès"},"link":"https://restaurant.michelin.fr/2blc3qr/chateau-de-mercues-mercues"},{"name":"Mavrommatis","address":{"thoroughfare":"42 rue Daubenton","postalcode":"75005","locality":"Paris 05"},"link":"https://restaurant.michelin.fr/2a95vol/mavrommatis-paris-05"},{"name":"Le Cerf","address":{"thoroughfare":"30 r. du Gén.-de-Gaulle","postalcode":"67520","locality":"Marlenheim"},"link":"https://restaurant.michelin.fr/2c74pw3/le-cerf-marlenheim"},{"name":"Les Fresques","address":{"thoroughfare":"13 Avenue des Mateirons","postalcode":"74500","locality":"Évian-les-Bains"},"link":"https://restaurant.michelin.fr/29gdnxp256n/les-fresques-evian-les-bains"},{"name":"Le St-Martin","address":{"thoroughfare":"1 r. du Gén.-Leclerc","postalcode":"25200","locality":"Montbéliard"},"link":"https://restaurant.michelin.fr/29zciea/le-st-martin-montbeliard"},{"name":"Yam'Tcha","address":{"thoroughfare":"121 r. St-Honoré","postalcode":"75001","locality":"Paris"},"link":"https://restaurant.michelin.fr/2ewldde/yamtcha-paris-01"},{"name":"Palm Beach","address":{"thoroughfare":"route des Iles Sanguinaires","postalcode":"20000","locality":"Ajaccio"},"link":"https://restaurant.michelin.fr/299lkwi1/palm-beach-ajaccio"},{"name":"La Table de Chaintré","address":{"thoroughfare":"72 pl. du Luminaire","postalcode":"71570","locality":"Chaintré"},"link":"https://restaurant.michelin.fr/294fsc5/la-table-de-chaintre-chaintre"},{"name":"Une Île","address":{"thoroughfare":"9 r. Max-Richard","postalcode":"49000","locality":"Angers"},"link":"https://restaurant.michelin.fr/2erjwfi/une-ile-angers"},{"name":"La Bonne Auberge","address":{"thoroughfare":"15 r. Nationale","postalcode":"57350","locality":"Stiring-Wendel"},"link":"https://restaurant.michelin.fr/29ifnwu/la-bonne-auberge-stiring-wendel"},{"name":"Le Saint-Martin","address":{"thoroughfare":"Avenue des Templiers","postalcode":"06140","locality":"Vence"},"link":"https://restaurant.michelin.fr/2d1gnwo/le-saint-martin-vence"},{"name":"Auberge de l'Ill","address":{"thoroughfare":"2 rue de Collonges-au-Mont d'Or","postalcode":"68970","locality":"Illhaeusern"},"link":"https://restaurant.michelin.fr/29nft26/auberge-de-lill-illhaeusern"},{"name":"Auberge St-Walfrid","address":{"thoroughfare":"58 r. de Grosbliederstroff","postalcode":"57200","locality":"Sarreguemines"},"link":"https://restaurant.michelin.fr/2ayc9n6/auberge-st-walfrid-sarreguemines"},{"name":"Les Pyrénées","address":{"thoroughfare":"19 pl. Ch.-de-Gaulle","postalcode":"64220","locality":"Saint-Jean-Pied-de-Port"},"link":"https://restaurant.michelin.fr/2cqrobi/les-pyrenees-saint-jean-pied-de-port"},{"name":"Kei","address":{"thoroughfare":"5 rue du Coq-Héron","postalcode":"75001","locality":"Paris 01"},"link":"https://restaurant.michelin.fr/9tmwymw/kei-paris-01"},{"name":"La Table Saint-Crescent","address":{"thoroughfare":"route de Perpignan","postalcode":"11100","locality":"Narbonne"},"link":"https://restaurant.michelin.fr/2a3kuo9/la-table-saint-crescent-narbonne"},{"name":"Michel Trama","address":{"thoroughfare":"52 r. Royale","postalcode":"47270","locality":"Puymirol"},"link":"https://restaurant.michelin.fr/2ckuncq/michel-trama-puymirol"},{"name":"La Coopérative","address":{"thoroughfare":"2A Route de Caladroy","postalcode":"66720","locality":"Bélesta"},"link":"https://restaurant.michelin.fr/3w3putu/la-cooperative-belesta"},{"name":"Jérémy Galvan","address":{"thoroughfare":"Rue du Boeuf","postalcode":"69005","locality":"Lyon 05"},"link":"https://restaurant.michelin.fr/3plxd2e/jeremy-galvan-lyon-05"},{"name":"Likoké","address":{"thoroughfare":"7 rte de Païolive","postalcode":"07140","locality":"Les Vans"},"link":"https://restaurant.michelin.fr/1ad26y4c/likoke-les-vans"},{"name":"Le Clocher des Pères","address":{"thoroughfare":"D213","postalcode":"73130","locality":"Saint-Martin-sur-la-Chambre"},"link":"https://restaurant.michelin.fr/h43i086/le-clocher-des-peres-saint-martin-sur-la-chambre"},{"name":"Frédéric Simonin","address":{"thoroughfare":"25 rue Bayen","postalcode":"75017","locality":"Paris"},"link":"https://restaurant.michelin.fr/2f8857v/frederic-simonin-paris-17"},{"name":"Château de Codignat","address":{"thoroughfare":"Bort l'Etang","postalcode":"63190","locality":"Bort-l'Étang"},"link":"https://restaurant.michelin.fr/2c4fx70/chateau-de-codignat-bort-letang"},{"name":"Auberge La Fenière","address":{"thoroughfare":"D943","postalcode":"84160","locality":"Cadenet"},"link":"https://restaurant.michelin.fr/29sgjsx279/auberge-la-feniere-cadenet"},{"name":"Alain Llorca","address":{"thoroughfare":"350 Route de Saint-Paul","postalcode":"06480","locality":"La Colle-sur-Loup"},"link":"https://restaurant.michelin.fr/2e4vi29/alain-llorca-la-colle-sur-loup"},{"name":"Auberge du Cheval Blanc","address":{"thoroughfare":"4 Route de Wissembourg","postalcode":"67510","locality":"Lembach"},"link":"https://restaurant.michelin.fr/29qf1y7/auberge-du-cheval-blanc-lembach"},{"name":"Pertica","address":{"thoroughfare":"15 pl. de la République","postalcode":"41100","locality":"Vendôme"},"link":"https://restaurant.michelin.fr/3u9bmm3c/pertica-vendome"},{"name":"La Table du 11","address":{"thoroughfare":"8 rue de la chancellerie","postalcode":"78000","locality":"Versailles"},"link":"https://restaurant.michelin.fr/d4dm7ddr/la-table-du-11-versailles"},{"name":"Les Berceaux","address":{"thoroughfare":"13 rue des Berceaux","postalcode":"51200","locality":"Épernay"},"link":"https://restaurant.michelin.fr/29fhuzu/les-berceaux-epernay"},{"name":"Les Rosiers","address":{"thoroughfare":"32 av. Beau Soleil","postalcode":"64200","locality":"Biarritz"},"link":"https://restaurant.michelin.fr/2epi2a4/les-rosiers-biarritz"},{"name":"Auberge de l'Abbaye","address":{"thoroughfare":"47 place des anciens Combattants","postalcode":"01500","locality":"Ambronay"},"link":"https://restaurant.michelin.fr/2dnoa2o/auberge-de-labbaye-ambronay"},{"name":"L'Atlantide 1874 - Maison Guého","address":{"thoroughfare":"5 r. de l'Hermitage","postalcode":"44100","locality":"Nantes"},"link":"https://restaurant.michelin.fr/2a32200/latlantide-1874-maison-gueho-nantes"},{"name":"Auberge de la Tour","address":{"thoroughfare":"Place de la Fontaine","postalcode":"15220","locality":"MARCOLES"},"link":"https://restaurant.michelin.fr/aewyhv0/auberge-de-la-tour-marcoles"},{"name":"La Promenade","address":{"thoroughfare":"11 rue du Savoureulx","postalcode":"37350","locality":"Le Petit-Pressigny"},"link":"https://restaurant.michelin.fr/2ajy6gr/la-promenade-le-petit-pressigny"},{"name":"Le Manoir du Lys","address":{"thoroughfare":"D235","postalcode":"61140","locality":"Bagnoles-de-l'Orne"},"link":"https://restaurant.michelin.fr/2bfnmbt/le-manoir-du-lys-bagnoles-de-lorne-normandie"},{"name":"Hostellerie la Montagne","address":{"thoroughfare":"10 rue Pisseloup","postalcode":"52330","locality":"COLOMBEY-LES-DEUX-EGLISES"},"link":"https://restaurant.michelin.fr/298i34w/hostellerie-la-montagne-colombey-les-deux-eglises"},{"name":"Henri et Joseph","address":{"thoroughfare":"4 r. Léo-le-Bourgo","postalcode":"56100","locality":"Lorient"},"link":"https://restaurant.michelin.fr/2e29zv6/henri-et-joseph-lorient"},{"name":"Le Lido","address":{"thoroughfare":"42 av. Napoléon-III","postalcode":"20110","locality":"Propriano"},"link":"https://restaurant.michelin.fr/29ajku0/le-lido-propriano"},{"name":"La Ribaudière","address":{"thoroughfare":"2 pl. du Port","postalcode":"16200","locality":"Bourg-Charente"},"link":"https://restaurant.michelin.fr/29o99va/la-ribaudiere-bourg-charente"},{"name":"Neige d'Été","address":{"thoroughfare":"12 Rue de l'Amiral Roussin","postalcode":"75015","locality":"Paris 15"},"link":"https://restaurant.michelin.fr/9fkib5i9/neige-dete-paris-15"},{"name":"Prairial","address":{"thoroughfare":"11 Rue Chavanne","postalcode":"69001","locality":"Lyon"},"link":"https://restaurant.michelin.fr/cpiyfjc0/prairial-lyon"},{"name":"La Bastide de Capelongue","address":{"thoroughfare":"Chemin des Cabanes","postalcode":"84480","locality":"Bonnieux"},"link":"https://restaurant.michelin.fr/2bj1jms/la-bastide-de-capelongue-bonnieux"},{"name":"Le Kléber","address":{"thoroughfare":"6 r. A. -Dumont","postalcode":"26400","locality":"Crest"},"link":"https://restaurant.michelin.fr/29bkalt/le-kleber-crest"},{"name":"Le Prince Noir - Vivien Durand","address":{"thoroughfare":"1 rue du Prince Noir","postalcode":"33310","locality":"Lormont"},"link":"https://restaurant.michelin.fr/4g00u3j8/le-prince-noir-vivien-durand-lormont"},{"name":"Elsa","address":{"thoroughfare":"Monte-Carlo Beach - Avenue Princesse Grace","postalcode":"06190","locality":"Roquebrune Cap-Martin"},"link":"https://restaurant.michelin.fr/9p2kj2b/elsa-cap-martin"},{"name":"Alcyone","address":{"thoroughfare":"1 Place Daviel","postalcode":"13002","locality":"MARSEILLE"},"link":"https://restaurant.michelin.fr/3f9eksg5n/alcyone-marseille-02"},{"name":"Le Cap","address":{"thoroughfare":"71 Boulevard du Général-de-Gaulle","postalcode":"06230","locality":"SAINT-JEAN-CAP-FERRAT"},"link":"https://restaurant.michelin.fr/2cqc8op/le-cap-saint-jean-cap-ferrat"},{"name":"Le Château de Sable","address":{"thoroughfare":"38 r. de l'Europe","postalcode":"29840","locality":"Porspoder"},"link":"https://restaurant.michelin.fr/2nnu14s6/le-chateau-de-sable-porspoder"},{"name":"La Voile","address":{"thoroughfare":"chemin de la Quessine","postalcode":"83350","locality":"Ramatuelle"},"link":"https://restaurant.michelin.fr/9tangja/la-voile-ramatuelle"},{"name":"Château Cordeillan-Bages","address":{"thoroughfare":"Route des châteaux","postalcode":"33250","locality":"Pauillac"},"link":"https://restaurant.michelin.fr/2chq5p0/chateau-cordeillan-bages-pauillac"},{"name":"Flocons de Sel","address":{"thoroughfare":"1775 rte du Leutaz","postalcode":"74120","locality":"Megève"},"link":"https://restaurant.michelin.fr/29wzk9t/flocons-de-sel-megeve"},{"name":"Restaurant du Château","address":{"thoroughfare":"15 avenue des Reynats","postalcode":"24650","locality":"Chancelade"},"link":"https://restaurant.michelin.fr/2chv2z6/restaurant-du-chateau-chancelade"},{"name":"L'Atelier de Joël Robuchon - Étoile","address":{"thoroughfare":"133 av. des Champs-Élysées","postalcode":"75008","locality":"Paris"},"link":"https://restaurant.michelin.fr/2feca5y/latelier-de-joel-robuchon-etoile-paris-08"},{"name":"Gaya Rive Gauche par Pierre Gagnaire","address":{"thoroughfare":"44 r. du Bac","postalcode":"75007","locality":"Paris"},"link":"https://restaurant.michelin.fr/2aabj6o/gaya-rive-gauche-par-pierre-gagnaire-paris-07"},{"name":"Les Bas-Rupts","address":{"thoroughfare":"181 rte de la Bresse","postalcode":"88400","locality":"Bas-Rupts"},"link":"https://restaurant.michelin.fr/29jqk2d/les-bas-rupts-bas-rupts"},{"name":"Albert 1er","address":{"thoroughfare":"38 rte du Bouchet","postalcode":"74400","locality":"Chamonix-Mont-Blanc"},"link":"https://restaurant.michelin.fr/2bnvpvu/albert-1er-chamonix-mont-blanc"},{"name":"Le Montgomerie","address":{"thoroughfare":"356 rte de l'Altiport","postalcode":"73120","locality":"Courchevel 1850"},"link":"https://restaurant.michelin.fr/29b4lr4/le-montgomerie-courchevel-1850"},{"name":"Dominique Bucaille","address":{"thoroughfare":"715 av. des Savels","postalcode":"04100","locality":"Manosque"},"link":"https://restaurant.michelin.fr/nwxo8h9/dominique-bucaille-manosque"},{"name":"I Salti","address":{"thoroughfare":"route du Reginu","postalcode":"20226","locality":"Belgodère"},"link":"https://restaurant.michelin.fr/3ffu4gq2/i-salti-belgodere"},{"name":"La Maison des Bois - Marc Veyrat","address":{"thoroughfare":"Chemin Rural de Manigod au Col de la Croix Fry","postalcode":"74230","locality":"Manigod"},"link":"https://restaurant.michelin.fr/8zgzs262/la-maison-des-bois-marc-veyrat-manigod"},{"name":"Lasserre","address":{"thoroughfare":"17 Avenue F. -D. -Roosevelt","postalcode":"75008","locality":"Paris 08"},"link":"https://restaurant.michelin.fr/2abcqvg/lasserre-paris-08"},{"name":"Le Hittau","address":{"thoroughfare":"1 rue du Nouaou","postalcode":"40230","locality":"SAINT-VINCENT-DE-TYROSSE"},"link":"https://restaurant.michelin.fr/2d9288s/le-hittau-saint-vincent-de-tyrosse"},{"name":"Le Lièvre Gourmand","address":{"thoroughfare":"28 quai du Châtelet","postalcode":"45000","locality":"Orléans"},"link":"https://restaurant.michelin.fr/2f48mjv/le-lievre-gourmand-orleans"},{"name":"L'Aromate","address":{"thoroughfare":"2 r. Gustave Deloye","postalcode":"06000","locality":"Nice"},"link":"https://restaurant.michelin.fr/2epn29l/laromate-nice"},{"name":"Bruno","address":{"thoroughfare":"2350 route des Arcs, Campagne Mariette","postalcode":"83510","locality":"Lorgues"},"link":"https://restaurant.michelin.fr/29s5co3/bruno-lorgues"},{"name":"Auberge Frankenbourg","address":{"thoroughfare":"13 r. Gén. de Gaulle","postalcode":"67730","locality":"La Vancelle"},"link":"https://restaurant.michelin.fr/29qv5p8/auberge-frankenbourg-la-vancelle"},{"name":"La Ville Blanche","address":{"thoroughfare":"La Ville Blanche","postalcode":"22300","locality":"Rospez"},"link":"https://restaurant.michelin.fr/29pm63n/la-ville-blanche-rospez"},{"name":"Le Chabichou","address":{"thoroughfare":"90 Route des Chenus","postalcode":"73120","locality":"Courchevel 1850"},"link":"https://restaurant.michelin.fr/2btao3c/le-chabichou-courchevel-1850"},{"name":"Les Hautes Roches","address":{"thoroughfare":"86 quai de Loire","postalcode":"37210","locality":"Rochecorbon"},"link":"https://restaurant.michelin.fr/2cyg6yb/les-hautes-roches-rochecorbon"},{"name":"La Chassagnette","address":{"thoroughfare":"route du Sambuc","postalcode":"13200","locality":"Arles"},"link":"https://restaurant.michelin.fr/28qr6q2/la-chassagnette-arles"},{"name":"L'Atelier Yssoirien","address":{"thoroughfare":"39 Boulevard Triozon-Bayle","postalcode":"63500","locality":"Issoire"},"link":"https://restaurant.michelin.fr/akc6ovv/latelier-yssoirien-issoire"},{"name":"Loiseau des Vignes","address":{"thoroughfare":"31 Rue Jean Francois Maufoux","postalcode":"21200","locality":"Beaune"},"link":"https://restaurant.michelin.fr/2ef8rpt/loiseau-des-vignes-beaune"},{"name":"Le Corot","address":{"thoroughfare":"55 Rue de Versailles","postalcode":"92410","locality":"VILLE-D'AVRAY"},"link":"https://restaurant.michelin.fr/2aiulws5/le-corot-ville-davray"},{"name":"La Ferme de l'Hospital","address":{"thoroughfare":"rte du golf","postalcode":"74160","locality":"Bossey"},"link":"https://restaurant.michelin.fr/2atzy38/la-ferme-de-lhospital-bossey"},{"name":"Le Gambetta","address":{"thoroughfare":"12 r. Gambetta","postalcode":"49400","locality":"Saumur"},"link":"https://restaurant.michelin.fr/2ayqw5m/le-gambetta-saumur"},{"name":"Le Beaulieu","address":{"thoroughfare":"34 Bis Place République","postalcode":"72000","locality":"Le Mans"},"link":"https://restaurant.michelin.fr/29vchdk/le-beaulieu-le-mans"},{"name":"Pic","address":{"thoroughfare":"285 avenue Victor Hugo","postalcode":"26000","locality":"Valence"},"link":"https://restaurant.michelin.fr/2d0hddd/pic-valence"},{"name":"Cyril Attrazic","address":{"thoroughfare":"10 rte du Languedoc","postalcode":"48130","locality":"Aumont-Aubrac"},"link":"https://restaurant.michelin.fr/28rd58x/cyril-attrazic-aumont-aubrac"},{"name":"Le Bistro des Saveurs","address":{"thoroughfare":"35 Rue de Sélestat","postalcode":"67210","locality":"Obernai"},"link":"https://restaurant.michelin.fr/2a619xs/le-bistro-des-saveurs-obernai"},{"name":"La Licorne Royale","address":{"thoroughfare":"27 Place Isaac Benserade","postalcode":"27480","locality":"Lyons-la-Forêt"},"link":"https://restaurant.michelin.fr/2ehwc2a/la-licorne-royale-lyons-la-foret"},{"name":"Auberge La Pomme d'Api","address":{"thoroughfare":"49 r. Verderel","postalcode":"29250","locality":"Saint-Pol-de-Léon"},"link":"https://restaurant.michelin.fr/2aw36e7/auberge-la-pomme-dapi-saint-pol-de-leon"},{"name":"Le Bouche à Oreille","address":{"thoroughfare":"11 r. de la Chapelle","postalcode":"91150","locality":"Boutervilliers"},"link":"https://restaurant.michelin.fr/s5edw9g/le-bouche-oreille-boutervilliers"},{"name":"Julien Binz","address":{"thoroughfare":"7 Rue des Cigognes","postalcode":"68770","locality":"Ammerschwihr"},"link":"https://restaurant.michelin.fr/yi79hbnh/julien-binz-ammerschwihr"},{"name":"Alliance","address":{"thoroughfare":"5 Rue de Poissy","postalcode":"75005","locality":"Paris"},"link":"https://restaurant.michelin.fr/t4cp5kaa/alliance-paris-05"},{"name":"Le Raisin","address":{"thoroughfare":"2 pl. M. -Poisat","postalcode":"01190","locality":"Pont-de-Vaux"},"link":"https://restaurant.michelin.fr/2al9714/le-raisin-pont-de-vaux"},{"name":"Le Cerisier","address":{"thoroughfare":"3 rue de la Gare","postalcode":"62840","locality":"LAVENTIE"},"link":"https://restaurant.michelin.fr/29qd0ox/le-cerisier-laventie"},{"name":"La Marine","address":{"thoroughfare":"11 r. de Paris","postalcode":"50270","locality":"Barneville-Carteret"},"link":"https://restaurant.michelin.fr/2bgh04f/la-marine-carteret"},{"name":"Au Vieux Couvent","address":{"thoroughfare":"6 r. des Chanoines","postalcode":"67860","locality":"Rhinau"},"link":"https://restaurant.michelin.fr/2aogs9u/au-vieux-couvent-rhinau"},{"name":"Casadelmar","address":{"thoroughfare":"Route de la Plage de Palombaggia","postalcode":"20137","locality":"Porto-Vecchio"},"link":"https://restaurant.michelin.fr/2dk81h5143/casadelmar-porto-vecchio"},{"name":"Le Jardin de Benjamin","address":{"thoroughfare":"Route de Salernes","postalcode":"83510","locality":"Lorgues"},"link":"https://restaurant.michelin.fr/xhr5bt96/le-jardin-de-benjamin-lorgues"},{"name":"L'Essentiel","address":{"thoroughfare":"8 r. de la Clarté","postalcode":"24000","locality":"Périgueux"},"link":"https://restaurant.michelin.fr/2dwdwxo/lessentiel-perigueux"},{"name":"Alan Geaam","address":{"thoroughfare":"19 Rue Lauriston","postalcode":"75016","locality":"Paris"},"link":"https://restaurant.michelin.fr/3045466/alan-geaam-paris-16"},{"name":"Auberge de Clochemerle","address":{"thoroughfare":"Rue Gabriel-Chevallier","postalcode":"69460","locality":"VAUX-EN-BEAUJOLAIS"},"link":"https://restaurant.michelin.fr/2dckc0s/auberge-de-clochemerle-vaux-en-beaujolais"},{"name":"Dyades au Domaine des Étangs","address":{"thoroughfare":"Les Etangs","postalcode":"16310","locality":"MASSIGNAC"},"link":"https://restaurant.michelin.fr/2f0stuh/dyades-au-domaine-des-etangs-massignac"},{"name":"L'Abeille","address":{"thoroughfare":"10 Avenue d'Iéna","postalcode":"75016","locality":"Paris 16"},"link":"https://restaurant.michelin.fr/2fcezsf/labeille-paris-16"},{"name":"Mon Plaisir","address":{"thoroughfare":"22 lieu-dit Journal","postalcode":"25190","locality":"Chamesol"},"link":"https://restaurant.michelin.fr/2d6m1yv/mon-plaisir-chamesol"},{"name":"114, Faubourg","address":{"thoroughfare":"114 r. Fg St-Honoré","postalcode":"75008","locality":"Paris 08"},"link":"https://restaurant.michelin.fr/2f3fs2n/114-faubourg-paris-08"},{"name":"Jérôme Nutile - Le Mas de Boudan","address":{"thoroughfare":"351 Chemin du Mas de Boudan","postalcode":"30000","locality":"Nîmes"},"link":"https://restaurant.michelin.fr/cne1oxue/jerome-nutile-le-mas-de-boudan-nimes"},{"name":"Laurent","address":{"thoroughfare":"41 av. Gabriel","postalcode":"75008","locality":"Paris"},"link":"https://restaurant.michelin.fr/2abdvpo/laurent-paris-08"},{"name":"Gavroche","address":{"thoroughfare":"4 r. Klein","postalcode":"67000","locality":"Strasbourg"},"link":"https://restaurant.michelin.fr/2b120tk/gavroche-strasbourg"},{"name":"Louison","address":{"thoroughfare":"2750 route de la cride","postalcode":"13610","locality":"Le Puy-Sainte-Réparade"},"link":"https://restaurant.michelin.fr/3068881/louison-le-puy-sainte-reparade"},{"name":"Astrance","address":{"thoroughfare":"4 r. Beethoven","postalcode":"75016","locality":"Paris"},"link":"https://restaurant.michelin.fr/2aeq3md/astrance-paris-16"},{"name":"Passage 53","address":{"thoroughfare":"53 passage des Panoramas","postalcode":"75002","locality":"Paris"},"link":"https://restaurant.michelin.fr/2ezpxm7/passage-53-paris-02"},{"name":"La Tour des Vents","address":{"thoroughfare":"Le Moulin de Malfourat","postalcode":"24240","locality":"Monbazillac"},"link":"https://restaurant.michelin.fr/28vws7k/la-tour-des-vents-monbazillac"},{"name":"AM par Alexandre Mazzia","address":{"thoroughfare":"9 rue François Rocca","postalcode":"13008","locality":"Marseille"},"link":"https://restaurant.michelin.fr/4gq15sff/am-par-alexandre-mazzia-marseille-08"},{"name":"La Grenouillère","address":{"thoroughfare":"19 r. de la Grenouillère","postalcode":"62170","locality":"La Madelaine-sous-Montreuil"},"link":"https://restaurant.michelin.fr/2a0ne3f/la-grenouillere-la-madelaine-sous-montreuil"},{"name":"Le Neuvième Art","address":{"thoroughfare":"173 r. Cuvier","postalcode":"69006","locality":"Lyon"},"link":"https://restaurant.michelin.fr/6pz7edt2/le-neuvieme-art-lyon-06"},{"name":"Domaine d'Auriac","address":{"thoroughfare":"Route de Saint-Hilaire","postalcode":"11000","locality":"Carcassonne"},"link":"https://restaurant.michelin.fr/2bmf006/domaine-dauriac-carcassonne"},{"name":"Cobéa","address":{"thoroughfare":"11 r. Raymond Losserand","postalcode":"75014","locality":"Paris 14"},"link":"https://restaurant.michelin.fr/2adr3mu/cobea-paris-14"},{"name":"Le Carrousel","address":{"thoroughfare":"14 rue du Pont de Morge","postalcode":"63350","locality":"MARINGUES"},"link":"https://restaurant.michelin.fr/2dwt9zi/le-carrousel-maringues"},{"name":"Lucas Carton","address":{"thoroughfare":"9 pl. de la Madeleine","postalcode":"75008","locality":"Paris 08"},"link":"https://restaurant.michelin.fr/2abav0l/lucas-carton-paris-08"},{"name":"Domaine de Clairefontaine","address":{"thoroughfare":"chemin des Fontanettes","postalcode":"38121","locality":"Chonas-l'Amballan"},"link":"https://restaurant.michelin.fr/2b8j4np/domaine-de-clairefontaine-chonas-lamballan"},{"name":"Rackham","address":{"thoroughfare":"27 pl. Lacaze Duthiers rčs de l'église","postalcode":"29680","locality":"ROSCOFF"},"link":"https://restaurant.michelin.fr/2cndbvx/rackham-roscoff"},{"name":"L'Auberge de la Pomme","address":{"thoroughfare":"44 rue de l' eure","postalcode":"27340","locality":"Les Damps"},"link":"https://restaurant.michelin.fr/2al6a9i/lauberge-de-la-pomme-les-damps"},{"name":"Pierre","address":{"thoroughfare":"7-9 rue Joseph Dufour","postalcode":"71000","locality":"Mâcon"},"link":"https://restaurant.michelin.fr/29uvz3j/pierre-macon"},{"name":"La Cachette","address":{"thoroughfare":"Rue des Cévennes","postalcode":"26000","locality":"Valence"},"link":"https://restaurant.michelin.fr/2dyaa0w/la-cachette-valence"},{"name":"Hervé Busset","address":{"thoroughfare":"D901","postalcode":"12320","locality":"Conques"},"link":"https://restaurant.michelin.fr/2brjniu/herve-busset-conques-en-rouergue"},{"name":"La Liégeoise","address":{"thoroughfare":"digue de mer","postalcode":"62930","locality":"Wimereux"},"link":"https://restaurant.michelin.fr/2fa1zgi202/la-liegeoise-wimereux"},{"name":"Allium","address":{"thoroughfare":"88 bd de Créac'h-Gwen","postalcode":"29000","locality":"Quimper"},"link":"https://restaurant.michelin.fr/suqhhtor/allium-quimper"},{"name":"Hostellerie de Levernois","address":{"thoroughfare":"15 r. du Golf","postalcode":"21200","locality":"Levernois"},"link":"https://restaurant.michelin.fr/28updvu/hostellerie-de-levernois-levernois"},{"name":"Meulien","address":{"thoroughfare":"1 bis av. des Alpes","postalcode":"71700","locality":"Tournus"},"link":"https://restaurant.michelin.fr/2dtylsa/meulien-tournus"},{"name":"Christopher Coutanceau","address":{"thoroughfare":"Promenade de la Concurrence","postalcode":"17000","locality":"La Rochelle"},"link":"https://restaurant.michelin.fr/2apfrj5/christopher-coutanceau-la-rochelle"},{"name":"La Vieille Tour","address":{"thoroughfare":"75 r. de la Tour","postalcode":"22190","locality":"Plérin"},"link":"https://restaurant.michelin.fr/2arxchk/la-vieille-tour-plerin"},{"name":"Stéphane Carbone","address":{"thoroughfare":"14 r. de Courtonne","postalcode":"14000","locality":"Caen"},"link":"https://restaurant.michelin.fr/2enzj8x/stephane-carbone-caen"},{"name":"La Madeleine","address":{"thoroughfare":"1 Rue Alsace-Lorraine","postalcode":"89100","locality":"Sens"},"link":"https://restaurant.michelin.fr/2azofoh/la-madeleine-sens"},{"name":"Restaurant du Palais Royal","address":{"thoroughfare":"110 Galerie de Valois - Jardin du Palais Royal","postalcode":"75001","locality":"Paris 01"},"link":"https://restaurant.michelin.fr/2a7qx35/restaurant-du-palais-royal-paris-01"},{"name":"Qui plume la Lune","address":{"thoroughfare":"50 r. Amelot","postalcode":"75011","locality":"Paris 11"},"link":"https://restaurant.michelin.fr/jh83esx/qui-plume-la-lune-paris-11"},{"name":"Hostellerie de l'Abbaye de la Celle","address":{"thoroughfare":"10 Place Général de Gaulle","postalcode":"83170","locality":"La Celle"},"link":"https://restaurant.michelin.fr/2bn8o1t/hostellerie-de-labbaye-de-la-celle-la-celle"},{"name":"Le Pavé d'Auge","address":{"thoroughfare":"D49","postalcode":"14430","locality":"Beuvron-en-Auge"},"link":"https://restaurant.michelin.fr/28wgjgo/le-pave-dauge-beuvron-en-auge"},{"name":"Copenhague","address":{"thoroughfare":"142 AVENUE DES CHAMPS ELYSEES","postalcode":"75008","locality":"PARIS"},"link":"https://restaurant.michelin.fr/2916876/copenhague-paris-08"},{"name":"Au 14 Février","address":{"thoroughfare":"2 r. du Portail","postalcode":"36100","locality":"Saint-Valentin"},"link":"https://restaurant.michelin.fr/2f80e2p/au-14-fevrier-saint-valentin"},{"name":"Le Jardin des Remparts","address":{"thoroughfare":"10 rue Hôtel-Dieu","postalcode":"21200","locality":"Beaune"},"link":"https://restaurant.michelin.fr/28u6ql7/le-jardin-des-remparts-beaune"},{"name":"Grand Hôtel du Lion d'Or","address":{"thoroughfare":"69 r. Clemenceau","postalcode":"41200","locality":"Romorantin-Lanthenay"},"link":"https://restaurant.michelin.fr/2cn0867/grand-hotel-du-lion-dor-romorantin-lanthenay"},{"name":"Michel Chabran - La Grande Table","address":{"thoroughfare":"29 Avenue du Quarante-Cinquième Parallèle","postalcode":"26600","locality":"Pont-de-l'Isère"},"link":"https://restaurant.michelin.fr/2d0la2d/michel-chabran-la-grande-table-pont-de-lisere"},{"name":"Quinsou","address":{"thoroughfare":"33 r. de l'Abbé-Grégoire","postalcode":"75006","locality":"Paris"},"link":"https://restaurant.michelin.fr/a22cmkwd/quinsou-paris-06"},{"name":"La Table de Manville","address":{"thoroughfare":"Domaine de Manville - D27","postalcode":"13520","locality":"LES-BAUX-DE-PROVENCE"},"link":"https://restaurant.michelin.fr/9wstvf9t/la-table-de-manville-les-baux-de-provence"},{"name":"Quai des Saveurs","address":{"thoroughfare":"69 rue de la Gare","postalcode":"57300","locality":"Hagondange"},"link":"https://restaurant.michelin.fr/2e9sbx2/quai-des-saveurs-hagondange"},{"name":"Les Bacchanales","address":{"thoroughfare":"247 avenue de Provence","postalcode":"06140","locality":"VENCE"},"link":"https://restaurant.michelin.fr/2en7eas/les-bacchanales-vence"},{"name":"Le Cloître","address":{"thoroughfare":"Le Cloitre","postalcode":"04300","locality":"Mane"},"link":"https://restaurant.michelin.fr/2ep5ghq/le-cloitre-mane"},{"name":"Le Restaurant","address":{"thoroughfare":"13 rue des Beaux-Arts","postalcode":"75006","locality":"Paris 06"},"link":"https://restaurant.michelin.fr/2cfem9h/le-restaurant-paris-06"},{"name":"Il Carpaccio","address":{"thoroughfare":"37 avenue Hoche","postalcode":"75008","locality":"Paris 08"},"link":"https://restaurant.michelin.fr/2fdi6av208/il-carpaccio-paris-08"},{"name":"Le Figuier de St-Esprit","address":{"thoroughfare":"7, Promenade Amiral de Grasse","postalcode":"06600","locality":"Antibes"},"link":"https://restaurant.michelin.fr/2ejmich/le-figuier-de-st-esprit-antibes"},{"name":"Entre Vigne et Garrigue","address":{"thoroughfare":"600 route de Saint Bruno","postalcode":"30131","locality":"Pujaut"},"link":"https://restaurant.michelin.fr/2etuup9/entre-vigne-et-garrigue-pujaut"},{"name":"La Dame de Pic","address":{"thoroughfare":"20 Rue du Louvre","postalcode":"75001","locality":"Paris 01"},"link":"https://restaurant.michelin.fr/jgnpf8y/la-dame-de-pic-paris-01"},{"name":"Initial","address":{"thoroughfare":"24 Rue Saint-Manvieu","postalcode":"14000","locality":"Caen"},"link":"https://restaurant.michelin.fr/sd2y8ik/initial-caen"},{"name":"Radio","address":{"thoroughfare":"43 av. P. et M.-Curie","postalcode":"63400","locality":"Chamalières"},"link":"https://restaurant.michelin.fr/2bqajf6/radio-chamalieres"},{"name":"La Bastide St-Antoine","address":{"thoroughfare":"48 av. Henri-Dunant","postalcode":"06130","locality":"Grasse"},"link":"https://restaurant.michelin.fr/29ktfvn/la-bastide-st-antoine-grasse"},{"name":"Pierre Orsi","address":{"thoroughfare":"Place Kléber","postalcode":"69006","locality":"Lyon 06"},"link":"https://restaurant.michelin.fr/29te7ik/pierre-orsi-lyon-06"},{"name":"Le Jardin des Plumes","address":{"thoroughfare":"1 Rue du Milieu","postalcode":"27620","locality":"Giverny"},"link":"https://restaurant.michelin.fr/omm63qr/le-jardin-des-plumes-giverny"},{"name":"Le Strasbourg","address":{"thoroughfare":"24 r. du Col. -Teyssier","postalcode":"57230","locality":"Bitche"},"link":"https://restaurant.michelin.fr/28x69qn/le-strasbourg-bitche"},{"name":"Le Musigny","address":{"thoroughfare":"90 Avenue de Liege","postalcode":"59300","locality":"Valenciennes"},"link":"https://restaurant.michelin.fr/3yjthyc/le-musigny-valenciennes"},{"name":"L'Aubergade","address":{"thoroughfare":"78 rte Nationale","postalcode":"80480","locality":"Dury"},"link":"https://restaurant.michelin.fr/28olvn9/laubergade-dury"},{"name":"La Nouvelle Auberge","address":{"thoroughfare":"9 route Nationale","postalcode":"68230","locality":"Wihr-au-Val"},"link":"https://restaurant.michelin.fr/2a2adlj/la-nouvelle-auberge-wihr-au-val"},{"name":"Stéphane Derbord","address":{"thoroughfare":"10 Place du Président Wilson","postalcode":"21000","locality":"Dijon"},"link":"https://restaurant.michelin.fr/29dkmez/stephane-derbord-dijon"},{"name":"Numéro 3","address":{"thoroughfare":"3 rue du Général de Gaulle","postalcode":"78490","locality":"Le Tremblay-sur-Mauldre"},"link":"https://restaurant.michelin.fr/2dnmje9/numero-3-le-tremblay-sur-mauldre"},{"name":"Le 1947","address":{"thoroughfare":"Cheval Blanc Courchevel - Le Jardin Alpin","postalcode":"73120","locality":"Courchevel 1850"},"link":"https://restaurant.michelin.fr/2eac1q1/le-1947-courchevel-1850"},{"name":"Anne de Bretagne","address":{"thoroughfare":"163, Boulevard de la Tara","postalcode":"44770","locality":"La Plaine-sur-Mer"},"link":"https://restaurant.michelin.fr/2ciults/anne-de-bretagne-la-plaine-sur-mer"},{"name":"1741","address":{"thoroughfare":"22 Quai des Bateliers","postalcode":"67000","locality":"Strasbourg"},"link":"https://restaurant.michelin.fr/amv21i8/1741-strasbourg"},{"name":"Flaveur","address":{"thoroughfare":"25 Rue Gubernatis","postalcode":"06000","locality":"Nice"},"link":"https://restaurant.michelin.fr/2exgwy4/flaveur-nice"},{"name":"Étincelles - La Gentilhommière","address":{"thoroughfare":"","postalcode":"24440","locality":"Sainte-Sabine"},"link":"https://restaurant.michelin.fr/2ejolq7/etincelles-la-gentilhommiere-sainte-sabine"},{"name":"Ed.Em","address":{"thoroughfare":"4 imp. Chenevottes","postalcode":"21190","locality":"Chassagne-Montrachet"},"link":"https://restaurant.michelin.fr/295xqfd/edem-chassagne-montrachet"},{"name":"Hostellerie Bérard","address":{"thoroughfare":"Avenue Gabriel-Péri","postalcode":"83740","locality":"LA-CADIERE-D'AZUR"},"link":"https://restaurant.michelin.fr/2bl33gu/hostellerie-berard-la-cadiere-dazur"},{"name":"Alléno Paris au Pavillon Ledoyen","address":{"thoroughfare":"8 avenue Dutuit","postalcode":"75008","locality":"Paris"},"link":"https://restaurant.michelin.fr/2ab5qlx/alleno-paris-au-pavillon-ledoyen-paris-08"},{"name":"La Mare aux Oiseaux","address":{"thoroughfare":"223 RUE DU CHEF DE L'ILE Fedrun","postalcode":"44720","locality":"Saint-Joachim"},"link":"https://restaurant.michelin.fr/2atvlv0/la-mare-aux-oiseaux-saint-joachim"},{"name":"Aida","address":{"thoroughfare":"1 r. Pierre Leroux","postalcode":"75007","locality":"Paris 07"},"link":"https://restaurant.michelin.fr/2dzh7q2/aida-paris-07"},{"name":"Les Genêts","address":{"thoroughfare":"21 bis Rue de l'Océan","postalcode":"85470","locality":"Brem-sur-Mer"},"link":"https://restaurant.michelin.fr/3ws5njk2/les-genets-brem-sur-mer"},{"name":"Gordon Ramsay au Trianon","address":{"thoroughfare":"1 bd de la Reine","postalcode":"78000","locality":"Versailles"},"link":"https://restaurant.michelin.fr/2aiqpqd/gordon-ramsay-au-trianon-versailles"},{"name":"Chez Michèle","address":{"thoroughfare":"57 rue Principale","postalcode":"57810","locality":"Languimberg"},"link":"https://restaurant.michelin.fr/29pia6z/chez-michele-languimberg"},{"name":"En Marge","address":{"thoroughfare":"1204 route de la Croix-Falgarde","postalcode":"31320","locality":"AUREVILLE"},"link":"https://restaurant.michelin.fr/q8lel2a/en-marge-aureville"},{"name":"La Closerie","address":{"thoroughfare":"bd des Platanes","postalcode":"84240","locality":"Ansouis"},"link":"https://restaurant.michelin.fr/2eebgpo/la-closerie-ansouis"},{"name":"L'Amaryllis","address":{"thoroughfare":"chemin de Martorey","postalcode":"71100","locality":"Saint-Rémy"},"link":"https://restaurant.michelin.fr/294rtmv/lamaryllis-saint-remy"},{"name":"Aux Pesked","address":{"thoroughfare":"59 Rue du Légué","postalcode":"22000","locality":"Saint-Brieuc"},"link":"https://restaurant.michelin.fr/2aru9pt/aux-pesked-saint-brieuc"},{"name":"Château de Courban","address":{"thoroughfare":"7 rue du Lavoir","postalcode":"21520","locality":"Courban"},"link":"https://restaurant.michelin.fr/2emcabb/chateau-de-courban-courban"},{"name":"Hostellerie Les Gorges de Pennafort","address":{"thoroughfare":"8660 RD 25","postalcode":"83830","locality":"Callas"},"link":"https://restaurant.michelin.fr/2blmwvy/hostellerie-les-gorges-de-pennafort-callas"},{"name":"Sylvestre","address":{"thoroughfare":"79 rue St-Dominique","postalcode":"75007","locality":"Paris"},"link":"https://restaurant.michelin.fr/2fe7j1g/sylvestre-paris-07"},{"name":"Le Saint-James","address":{"thoroughfare":"3 pl. Camille-Hostein","postalcode":"33270","locality":"BOULIAC"},"link":"https://restaurant.michelin.fr/2bj8gr9/le-saint-james-bouliac"},{"name":"Pont de l'Ouysse","address":{"thoroughfare":"D23","postalcode":"46200","locality":"Lacave"},"link":"https://restaurant.michelin.fr/29p8ja1/pont-de-louysse-lacave"},{"name":"Cayola","address":{"thoroughfare":"76 promenade de Cayola","postalcode":"85180","locality":"Talmont-Saint-Hilaire"},"link":"https://restaurant.michelin.fr/2arajo6/cayola-bois-de-saint-jean"},{"name":"Le Meurice Alain Ducasse","address":{"thoroughfare":"228 Rue de Rivoli","postalcode":"75001","locality":"Paris"},"link":"https://restaurant.michelin.fr/2a7d9c1/le-meurice-alain-ducasse-paris-01"},{"name":"Le Candille","address":{"thoroughfare":"bd C. Rebuffel","postalcode":"06250","locality":"Mougins"},"link":"https://restaurant.michelin.fr/2a1fgdk/le-candille-mougins"},{"name":"Les Trois Soleils de Montal","address":{"thoroughfare":"St-Jean-Lespinasse","postalcode":"46400","locality":"Saint-Céré"},"link":"https://restaurant.michelin.fr/2coonxc/les-trois-soleils-de-montal-saint-cere"},{"name":"Auberge Grand'Maison","address":{"thoroughfare":"1 r. Léon-le-Cerf","postalcode":"22530","locality":"Mûr-de-Bretagne"},"link":"https://restaurant.michelin.fr/2a2flya/auberge-grandmaison-mur-de-bretagne"},{"name":"Serge Vieira","address":{"thoroughfare":"Château du Couffour","postalcode":"15110","locality":"Chaudes-Aigues"},"link":"https://restaurant.michelin.fr/2ey495p/serge-vieira-chaudes-aigues"},{"name":"Le Prieuré","address":{"thoroughfare":"7, place du Chapitre","postalcode":"30400","locality":"Villeneuve-lès-Avignon"},"link":"https://restaurant.michelin.fr/2d2wqpd/le-prieure-villeneuve-les-avignon"},{"name":"Domaine des Séquoias","address":{"thoroughfare":"54 Vie-de-Boussieu","postalcode":"38300","locality":"Ruy"},"link":"https://restaurant.michelin.fr/28zo6i3/domaine-des-sequoias-ruy"},{"name":"Buerehiesel","address":{"thoroughfare":"dans le parc de l'Orangerie","postalcode":"67000","locality":"Strasbourg"},"link":"https://restaurant.michelin.fr/2b0sgrs/buerehiesel-strasbourg"},{"name":"1217","address":{"thoroughfare":"le bourg","postalcode":"69620","locality":"Bagnols"},"link":"https://restaurant.michelin.fr/2bfuk4c/1217-bagnols"},{"name":"Le Carré d'Alethius","address":{"thoroughfare":"4 r. Paul-Bertois","postalcode":"07800","locality":"Charmes-sur-Rhône"},"link":"https://restaurant.michelin.fr/2fa4jx5/le-carre-dalethius-charmes-sur-rhone"},{"name":"David Toutain","address":{"thoroughfare":"29 r. Surcouf","postalcode":"75007","locality":"Paris"},"link":"https://restaurant.michelin.fr/2ei5hub/david-toutain-paris-07"},{"name":"Restaurant des Rois","address":{"thoroughfare":"5 Boulevard du Maréchal Leclerc","postalcode":"06310","locality":"Beaulieu-sur-Mer"},"link":"https://restaurant.michelin.fr/2bh3p7k/restaurant-des-rois-beaulieu-sur-mer"},{"name":"Guy Lassausaie","address":{"thoroughfare":"r. de Belle-Sise","postalcode":"69380","locality":"Chasselay"},"link":"https://restaurant.michelin.fr/295zuzb/guy-lassausaie-chasselay"},{"name":"Les Climats","address":{"thoroughfare":"41 rue de Lille","postalcode":"75007","locality":"Paris 07"},"link":"https://restaurant.michelin.fr/3x7v6dz/les-climats-paris-07"},{"name":"La Vague d'Or","address":{"thoroughfare":"Plage de Bouillabaisse","postalcode":"83990","locality":"Saint-Tropez"},"link":"https://restaurant.michelin.fr/2csqkr7/la-vague-dor-saint-tropez"},{"name":"Atmosphères","address":{"thoroughfare":"618 Route des Tournelles","postalcode":"73370","locality":"Le Bourget-du-Lac"},"link":"https://restaurant.michelin.fr/28zmco9/atmospheres-le-bourget-du-lac"},{"name":"La Table de la Bergerie","address":{"thoroughfare":"La Bergerie","postalcode":"49380","locality":"Champ-sur-Layon"},"link":"https://restaurant.michelin.fr/i1i7i9b/la-table-de-la-bergerie-le-champ-sur-layon"},{"name":"Château du Mont Joly","address":{"thoroughfare":"6 r. du Mont-Joly","postalcode":"39100","locality":"Sampans"},"link":"https://restaurant.michelin.fr/2ejhn11/chateau-du-mont-joly-sampans"},{"name":"Toya","address":{"thoroughfare":"av. Jean-Monnet","postalcode":"57380","locality":"Faulquemont"},"link":"https://restaurant.michelin.fr/3vxe9bf/toya-faulquemont"},{"name":"L'Arôme","address":{"thoroughfare":"3 rue St-Philippe-du-Roule","postalcode":"75008","locality":"Paris 08"},"link":"https://restaurant.michelin.fr/2e8vcj7/larome-paris-08"},{"name":"La Rotonde","address":{"thoroughfare":"200 avenue du Casino","postalcode":"69890","locality":"LA-TOUR-DE-SALVAGNY"},"link":"https://restaurant.michelin.fr/29uqy46/la-rotonde-la-tour-de-salvagny"},{"name":"La Bastide de Moustiers","address":{"thoroughfare":"Parc naturel régional du Verdon, Chemin de Quinson","postalcode":"04360","locality":"Moustiers-Sainte-Marie"},"link":"https://restaurant.michelin.fr/2cbq46s/la-bastide-de-moustiers-moustiers-sainte-marie"},{"name":"Le Violon d'Ingres","address":{"thoroughfare":"135 Rue Saint-Dominique","postalcode":"75007","locality":"Paris"},"link":"https://restaurant.michelin.fr/2aa5u1w/le-violon-dingres-paris-07"},{"name":"Maison Crouzil et Hôtel L'Écrin","address":{"thoroughfare":"20 les Quais","postalcode":"22130","locality":"Plancoët"},"link":"https://restaurant.michelin.fr/2akcwpg8/maison-crouzil-et-hotel-lecrin-plancoet"},{"name":"Le Moulin d'Alotz","address":{"thoroughfare":"chemin Alotz-Errota","postalcode":"64200","locality":"Alotz"},"link":"https://restaurant.michelin.fr/28x0rz3/le-moulin-dalotz-alotz"},{"name":"Les Explorateurs","address":{"thoroughfare":"place du Slalom","postalcode":"73440","locality":"VAL THORENS"},"link":"https://restaurant.michelin.fr/ui89zrwk/les-explorateurs-val-thorens"},{"name":"Georges Blanc","address":{"thoroughfare":"pl. du Marché","postalcode":"01540","locality":"Vonnas"},"link":"https://restaurant.michelin.fr/2d3ergs/georges-blanc-vonnas"},{"name":"L'Arnsbourg","address":{"thoroughfare":"Untermuhlthal","postalcode":"57230","locality":"Baerenthal"},"link":"https://restaurant.michelin.fr/yjkdc8kf/larnsbourg-baerenthal"},{"name":"La Maison dans le Parc","address":{"thoroughfare":"3 r. Ste-Catherine","postalcode":"54000","locality":"Nancy"},"link":"https://restaurant.michelin.fr/2elnjes/la-maison-dans-le-parc-nancy"},{"name":"Les Tables de Gaspard","address":{"thoroughfare":"r. Principale","postalcode":"05600","locality":"St-Crépin"},"link":"https://restaurant.michelin.fr/2duw4bw/les-tables-de-gaspard-saint-crepin"},{"name":"Les Terrasses de Lyon","address":{"thoroughfare":"25, montée Saint BArthelémy","postalcode":"69005","locality":"Lyon 05"},"link":"https://restaurant.michelin.fr/29t2ib7/les-terrasses-de-lyon-lyon-05"},{"name":"La Balette","address":{"thoroughfare":"rte de Port-Vendres","postalcode":"66190","locality":"Collioure"},"link":"https://restaurant.michelin.fr/2dlsvt0/la-balette-collioure"},{"name":"Loiseau rive Gauche","address":{"thoroughfare":"5 rue de Bourgogne","postalcode":"75007","locality":"Paris 07"},"link":"https://restaurant.michelin.fr/2aaahmg/loiseau-rive-gauche-paris-07"},{"name":"Lamartine","address":{"thoroughfare":"Route du Tunnel du Chat","postalcode":"73370","locality":"Le Bourget du Lac"},"link":"https://restaurant.michelin.fr/28zi7ln/lamartine-le-bourget-du-lac"},{"name":"La Matelote","address":{"thoroughfare":"80 Boulevard Ste Beuve","postalcode":"62200","locality":"BOULOGNE-SUR-MER"},"link":"https://restaurant.michelin.fr/28yvb9u/la-matelote-boulogne-sur-mer"},{"name":"Septime","address":{"thoroughfare":"80 r. de Charonne","postalcode":"75011","locality":"Paris"},"link":"https://restaurant.michelin.fr/3xrgyvn/septime-paris-11"},{"name":"Maison Jeunet","address":{"thoroughfare":"9 r. de l'Hôtel-de-Ville","postalcode":"39600","locality":"Arbois"},"link":"https://restaurant.michelin.fr/28pylpu/maison-jeunet-arbois"},{"name":"Gill","address":{"thoroughfare":"9 quai de la Bourse","postalcode":"76000","locality":"Rouen"},"link":"https://restaurant.michelin.fr/2aqe7bm/gill-rouen"},{"name":"Étude","address":{"thoroughfare":"14 r. Bouquet-de-Longchamp","postalcode":"75016","locality":"Paris"},"link":"https://restaurant.michelin.fr/3g8qf775/etude-paris-16"},{"name":"L'Axel","address":{"thoroughfare":"43 r. de France","postalcode":"77300","locality":"Fontainebleau"},"link":"https://restaurant.michelin.fr/29i66ux/laxel-fontainebleau"},{"name":"La Chaumière","address":{"thoroughfare":"346 av. du Mar. -Juin","postalcode":"39100","locality":"Dole"},"link":"https://restaurant.michelin.fr/2buz227/la-chaumiere-dole"},{"name":"Relais de la Poste","address":{"thoroughfare":"24 avenue de Maremne","postalcode":"40140","locality":"Magescq"},"link":"https://restaurant.michelin.fr/2c6dfrz/relais-de-la-poste-magescq"},{"name":"L'Almandin","address":{"thoroughfare":"Boulevard de l'Almandin","postalcode":"66750","locality":"Saint-Cyprien"},"link":"https://restaurant.michelin.fr/2as8r3a/lalmandin-saint-cyprien-plage"},{"name":"La Côte Saint-Jacques","address":{"thoroughfare":"14 faubourg de Paris","postalcode":"89300","locality":"Joigny"},"link":"https://restaurant.michelin.fr/2c2ma30/la-cote-saint-jacques-joigny"},{"name":"Le Saint-Estève","address":{"thoroughfare":"2250 route cézanne D17","postalcode":"13100","locality":"Le Tholonet"},"link":"https://restaurant.michelin.fr/2x1lce26/le-saint-esteve-le-tholonet"},{"name":"JY'S","address":{"thoroughfare":"17 r. de la Poissonnerie","postalcode":"68000","locality":"Colmar"},"link":"https://restaurant.michelin.fr/298563e/jys-colmar"},{"name":"Le Pavillon des Boulevards","address":{"thoroughfare":"120 r. Croix-de-Seguey","postalcode":"33000","locality":"Bordeaux"},"link":"https://restaurant.michelin.fr/28y19tl/le-pavillon-des-boulevards-bordeaux"},{"name":"Pierre Gagnaire","address":{"thoroughfare":"6 Rue Balzac","postalcode":"75008","locality":"Paris 08"},"link":"https://restaurant.michelin.fr/2abhfav/pierre-gagnaire-paris-08"},{"name":"L'Arcane","address":{"thoroughfare":"39 Rue Lamarck","postalcode":"75018","locality":"Paris"},"link":"https://restaurant.michelin.fr/vx40rloc/larcane-paris-18"},{"name":"La Grand'Vigne","address":{"thoroughfare":"chemin de Smith-Haut-Lafitte","postalcode":"33650","locality":"Martillac"},"link":"https://restaurant.michelin.fr/28yhuxy/la-grandvigne-martillac"},{"name":"Au Souper Fin","address":{"thoroughfare":"1 rte de Clères","postalcode":"76690","locality":"Frichemesnil"},"link":"https://restaurant.michelin.fr/29783wk/au-souper-fin-frichemesnil"},{"name":"Aux Anges","address":{"thoroughfare":"6 Place Georges Clemenceau","postalcode":"42300","locality":"Roanne"},"link":"https://restaurant.michelin.fr/3m56yu9/aux-anges-roanne"},{"name":"Le Domaine du Colombier","address":{"thoroughfare":"270 Chemin de Malombre","postalcode":"26780","locality":"Malataverne"},"link":"https://restaurant.michelin.fr/2ca9g6u/le-domaine-du-colombier-malataverne"},{"name":"Christophe Bacquié","address":{"thoroughfare":"Hotel du Castellet Route des Hauts du Camp","postalcode":"83330","locality":"Le Castellet"},"link":"https://restaurant.michelin.fr/2bmu0gi/christophe-bacquie-le-castellet"},{"name":"Faventia","address":{"thoroughfare":"3100 route de Bagnols-en-Forêt","postalcode":"83440","locality":"Tourrettes"},"link":"https://restaurant.michelin.fr/2dix4nq137/faventia-tourrettes"},{"name":"Le Kintessence","address":{"thoroughfare":"Rue des Clarines","postalcode":"73120","locality":"Courchevel 1850"},"link":"https://restaurant.michelin.fr/am8q9hp/le-kintessence-courchevel-1850"},{"name":"Helen","address":{"thoroughfare":"3 r.Berryer","postalcode":"75008","locality":"Paris"},"link":"https://restaurant.michelin.fr/3o59i9b/helen-paris-08"},{"name":"Auberge St-Laurent","address":{"thoroughfare":"1 rue Fontaine","postalcode":"68510","locality":"Sierentz"},"link":"https://restaurant.michelin.fr/2b05ga9/auberge-st-laurent-sierentz"},{"name":"Le Grand Véfour","address":{"thoroughfare":"17 rue de Beaujolais","postalcode":"75001","locality":"Paris"},"link":"https://restaurant.michelin.fr/2a7edmf/le-grand-vefour-paris-01"},{"name":"Mère Brazier","address":{"thoroughfare":"12 rue Royale","postalcode":"69001","locality":"LYON"},"link":"https://restaurant.michelin.fr/2et3r6g/mere-brazier-lyon"},{"name":"L'Océan","address":{"thoroughfare":"43 bd Thiers","postalcode":"64500","locality":"Saint-Jean-de-Luz"},"link":"https://restaurant.michelin.fr/szxhgy9t/locean-saint-jean-de-luz"},{"name":"JAN","address":{"thoroughfare":"12 Rue Lascaris","postalcode":"06000","locality":"Nice"},"link":"https://restaurant.michelin.fr/38z104i7/jan-nice"},{"name":"Le Vivier","address":{"thoroughfare":"800 cours F. Peyre (rte de Carpentras)","postalcode":"84800","locality":"L'Isle-sur-la-Sorgue"},"link":"https://restaurant.michelin.fr/29nsjme/le-vivier-lisle-sur-la-sorgue"},{"name":"Paul Bocuse","address":{"thoroughfare":"40 Quai de la Plage","postalcode":"69660","locality":"Collonges-au-Mont-d'Or"},"link":"https://restaurant.michelin.fr/29tbf1t/paul-bocuse-collonges-au-mont-dor"},{"name":"La Table de Nans","address":{"thoroughfare":"corniche du Liouquet","postalcode":"13600","locality":"La Ciotat"},"link":"https://restaurant.michelin.fr/akfvyg8/la-table-de-nans-la-ciotat"},{"name":"Le M","address":{"thoroughfare":"22 r. du Cdt-Drogou","postalcode":"29200","locality":"Brest"},"link":"https://restaurant.michelin.fr/2epv4gf/le-m-brest"},{"name":"Auberge des Templiers","address":{"thoroughfare":"D2007","postalcode":"45290","locality":"Les Bézards"},"link":"https://restaurant.michelin.fr/2bicgcl/auberge-des-templiers-les-bezards"},{"name":"Le Petit Hôtel du Grand Large","address":{"thoroughfare":"11 quai St-Ivy","postalcode":"56510","locality":"Portivy"},"link":"https://restaurant.michelin.fr/2dy7rqn/le-petit-hotel-du-grand-large-portivy"},{"name":"Manoir de la Boulaie","address":{"thoroughfare":"33 rue Chapelle St-Martin","postalcode":"44115","locality":"HAUTE-GOULAINE"},"link":"https://restaurant.michelin.fr/2a3ey4n/manoir-de-la-boulaie-haute-goulaine"},{"name":"MaSa","address":{"thoroughfare":"112 avenue Victor-Hugo","postalcode":"92100","locality":"Boulogne-Billancourt"},"link":"https://restaurant.michelin.fr/2enx3bmn/masa-boulogne-billancourt"},{"name":"Le 39V","address":{"thoroughfare":"39 Avenue George V","postalcode":"75008","locality":"Paris 08"},"link":"https://restaurant.michelin.fr/2fd19do/le-39v-paris-08"},{"name":"Auberge du Bon Laboureur","address":{"thoroughfare":"6 r. Dr Bretonneau","postalcode":"37150","locality":"Chenonceaux"},"link":"https://restaurant.michelin.fr/2bpwyme/auberge-du-bon-laboureur-chenonceaux"},{"name":"Greuze","address":{"thoroughfare":"1 r. A. Thibaudet","postalcode":"71700","locality":"Tournus"},"link":"https://restaurant.michelin.fr/3uonmfw/greuze-tournus"},{"name":"L'Atelier de Gaztelur","address":{"thoroughfare":"Chemin de Gastelhur","postalcode":"64200","locality":"Arcangues"},"link":"https://restaurant.michelin.fr/t3tqba7q/latelier-de-gaztelur-arcangues"},{"name":"Le Clair de la Plume","address":{"thoroughfare":"2 Place du Mail","postalcode":"26230","locality":"Grignan"},"link":"https://restaurant.michelin.fr/2faahd5/le-clair-de-la-plume-grignan"},{"name":"Relais de la Poste","address":{"thoroughfare":"21 rue du Gén. -de-Gaulle","postalcode":"67610","locality":"LA-WANTZENAU"},"link":"https://restaurant.michelin.fr/2b1jv34/relais-de-la-poste-la-wantzenau"},{"name":"Auberge de la Mine","address":{"thoroughfare":"le Gué-Plat","postalcode":"61450","locality":"La Ferrière-aux-Étangs"},"link":"https://restaurant.michelin.fr/29hyxpk/auberge-de-la-mine-gue-plat"},{"name":"Le Grand Cerf","address":{"thoroughfare":"50 rte Nationale","postalcode":"51500","locality":"Montchenot"},"link":"https://restaurant.michelin.fr/2anw751/le-grand-cerf-montchenot"},{"name":"La Pyramide-Patrick Henriroux","address":{"thoroughfare":"14 Boulevard Fernand Point","postalcode":"38200","locality":"Vienne"},"link":"https://restaurant.michelin.fr/2f4bg71/la-pyramide-patrick-henriroux-vienne"},{"name":"Assa","address":{"thoroughfare":"189 Quai Ulysse Besnard","postalcode":"41000","locality":"Blois"},"link":"https://restaurant.michelin.fr/3m0pjn8/assa-blois"},{"name":"La Scène","address":{"thoroughfare":"33 Avenue George V","postalcode":"75008","locality":"Paris"},"link":"https://restaurant.michelin.fr/1ore4aj2/la-scene-paris-08"},{"name":"Dan B. - La Table de Ventabren","address":{"thoroughfare":"r. F. -Mistral","postalcode":"13122","locality":"Ventabren"},"link":"https://restaurant.michelin.fr/2b7at88/dan-b-la-table-de-ventabren-ventabren"},{"name":"L'Écrin","address":{"thoroughfare":"10 place de la Concorde","postalcode":"75008","locality":"Paris"},"link":"https://restaurant.michelin.fr/3503291/lecrin-paris-08"},{"name":"Auberge de la Charme","address":{"thoroughfare":"12 r. de la Charme","postalcode":"21370","locality":"Prenois"},"link":"https://restaurant.michelin.fr/29dyqga/auberge-de-la-charme-prenois"},{"name":"Tour d'Argent","address":{"thoroughfare":"15 quai de la Tournelle","postalcode":"75005","locality":"Paris"},"link":"https://restaurant.michelin.fr/2a8xf2a/tour-dargent-paris-05"},{"name":"L'Orangerie du Château","address":{"thoroughfare":"1 Avenue du Docteur Jean Laigret","postalcode":"41000","locality":"Blois"},"link":"https://restaurant.michelin.fr/28xeo4n/lorangerie-du-chateau-blois"},{"name":"La Fourchette des Ducs","address":{"thoroughfare":"6 r. de la Gare","postalcode":"67210","locality":"Obernai"},"link":"https://restaurant.michelin.fr/2a5ztne/la-fourchette-des-ducs-obernai"},{"name":"La Réserve Rimbaud","address":{"thoroughfare":"820 Avenue de Saint-Maur","postalcode":"34000","locality":"Montpellier"},"link":"https://restaurant.michelin.fr/2d8d9p1/la-reserve-rimbaud-montpellier"},{"name":"Le Haut-Allier","address":{"thoroughfare":"LE PONT D ALLEYRAS","postalcode":"43580","locality":"Alleyras"},"link":"https://restaurant.michelin.fr/2bc2prd/le-haut-allier-le-pont-dalleyras"},{"name":"Le Parc Les Crayères","address":{"thoroughfare":"64 Boulevard Henry Vasnier","postalcode":"51100","locality":"Reims"},"link":"https://restaurant.michelin.fr/2clh5yg/le-parc-les-crayeres-reims"},{"name":"Jean-Claude Leclerc","address":{"thoroughfare":"12 rue St-Adjutor","postalcode":"63000","locality":"Clermont-Ferrand"},"link":"https://restaurant.michelin.fr/297ge86/jean-claude-leclerc-clermont-ferrand"},{"name":"Le Cercle","address":{"thoroughfare":"44 bd Lahitolle","postalcode":"18000","locality":"Bourges"},"link":"https://restaurant.michelin.fr/9trxkaz/le-cercle-bourges"},{"name":"Apicius","address":{"thoroughfare":"20 r. d'Artois","postalcode":"75008","locality":"PARIS"},"link":"https://restaurant.michelin.fr/2affgmi/apicius-paris-08"},{"name":"1912","address":{"thoroughfare":"bd de la Cahotte","postalcode":"14360","locality":"Trouville-sur-Mer"},"link":"https://restaurant.michelin.fr/cns0apa3/1912-trouville-sur-mer"},{"name":"Transparence \"La Table de Patrick Fréchin\"","address":{"thoroughfare":"28 r. Stanislas","postalcode":"54000","locality":"Nancy"},"link":"https://restaurant.michelin.fr/2jtf0iqj/transparence-la-table-de-patrick-frechin-nancy"},{"name":"L'Ambroisie","address":{"thoroughfare":"9 Place des Vosges","postalcode":"75004","locality":"Paris"},"link":"https://restaurant.michelin.fr/2a8d13e/lambroisie-paris-04"},{"name":"Thierry Drapeau","address":{"thoroughfare":"La Chabotterie","postalcode":"85260","locality":"Saint-Sulpice-le-Verdon"},"link":"https://restaurant.michelin.fr/2dnrb62/thierry-drapeau-saint-sulpice-le-verdon"},{"name":"Le Relais Bernard Loiseau","address":{"thoroughfare":"2, rue d'Argentine","postalcode":"21210","locality":"Saulieu"},"link":"https://restaurant.michelin.fr/2cur8yy/le-relais-bernard-loiseau-saulieu"},{"name":"Le Pré Catelan","address":{"thoroughfare":"Route de Suresnes","postalcode":"75016","locality":"Paris"},"link":"https://restaurant.michelin.fr/2af46v7/le-pre-catelan-paris-16"},{"name":"Les Trois Rochers","address":{"thoroughfare":"16 rue du Phare","postalcode":"29120","locality":"Sainte-Marine"},"link":"https://restaurant.michelin.fr/2bi0j2j/les-trois-rochers-sainte-marine"},{"name":"Maison Lameloise","address":{"thoroughfare":"36 pl. d'Armes","postalcode":"71150","locality":"Chagny"},"link":"https://restaurant.michelin.fr/2bnef6m/maison-lameloise-chagny"},{"name":"Le Bistrot de Lagarde","address":{"thoroughfare":"rte d'Apt","postalcode":"84400","locality":"Lagarde-d'Apt"},"link":"https://restaurant.michelin.fr/jfxt32k/le-bistrot-de-lagarde-lagarde-dapt"},{"name":"Côté Jardin","address":{"thoroughfare":"14 rte de Bourges","postalcode":"45500","locality":"Gien"},"link":"https://restaurant.michelin.fr/29jyv6a/cote-jardin-gien"},{"name":"Le 7ème Continent","address":{"thoroughfare":"35 av. Gén. -de-Gaulle","postalcode":"68170","locality":"Rixheim"},"link":"https://restaurant.michelin.fr/9tnfzh4/le-7eme-continent-rixheim"},{"name":"Auberge de la Diligence","address":{"thoroughfare":"4 r. de la Libération","postalcode":"49440","locality":"Loiré"},"link":"https://restaurant.michelin.fr/29ryt77/auberge-de-la-diligence-loire"},{"name":"Château de Mirambeau","address":{"thoroughfare":"1 Avenue des Comtes Duchatel","postalcode":"17150","locality":"Mirambeau"},"link":"https://restaurant.michelin.fr/2c914ee/chateau-de-mirambeau-mirambeau"},{"name":"Les Terrasses d'Uriage","address":{"thoroughfare":"pl. Déesse-Hygie","postalcode":"38410","locality":"Uriage-les-Bains"},"link":"https://restaurant.michelin.fr/2b5lehi/les-terrasses-duriage-uriage-les-bains"},{"name":"Jérôme Feck","address":{"thoroughfare":"19 pl. Mgr-Tissier","postalcode":"51000","locality":"Châlons-en-Champagne"},"link":"https://restaurant.michelin.fr/294k5c0/jerome-feck-chalons-en-champagne"},{"name":"Le Refuge des Gourmets","address":{"thoroughfare":"90 route des Framboises","postalcode":"74140","locality":"Machilly"},"link":"https://restaurant.michelin.fr/29uv8a7/le-refuge-des-gourmets-machilly"},{"name":"Le Bec au Cauchois","address":{"thoroughfare":"22 Rue André Fiquet","postalcode":"76540","locality":"Valmont"},"link":"https://restaurant.michelin.fr/2b6gbtl/le-bec-au-cauchois-valmont"},{"name":"Pur' - Jean-François Rouquette","address":{"thoroughfare":"5 r. de la Paix","postalcode":"75002","locality":"Paris 02"},"link":"https://restaurant.michelin.fr/2dqiunf/pur-jean-francois-rouquette-paris-02"},{"name":"Épicure","address":{"thoroughfare":"112 r. Fg St-Honoré","postalcode":"75008","locality":"Paris 08"},"link":"https://restaurant.michelin.fr/2ab8pfp/epicure-paris-08"},{"name":"Mirazur","address":{"thoroughfare":"30, Avenue Aristide Briand","postalcode":"06500","locality":"Menton"},"link":"https://restaurant.michelin.fr/2d440f7/mirazur-menton"},{"name":"SEPT","address":{"thoroughfare":"7 pl. St-Sernin","postalcode":"31000","locality":"Toulouse"},"link":"https://restaurant.michelin.fr/2b38wht/sept-toulouse"},{"name":"La Palme d'Or","address":{"thoroughfare":"73 Boulevard de la Croisette","postalcode":"06400","locality":"Cannes"},"link":"https://restaurant.michelin.fr/292bk5u/la-palme-dor-cannes"},{"name":"Le Clarence","address":{"thoroughfare":"31 Avenue Franklin Delano Roosevelt","postalcode":"75008","locality":"Paris 08"},"link":"https://restaurant.michelin.fr/sntd30zx/le-clarence-paris-08"},{"name":"L'Amphitryon","address":{"thoroughfare":"127 r. du Col. -Müller","postalcode":"56100","locality":"Lorient"},"link":"https://restaurant.michelin.fr/29saut6/lamphitryon-lorient"},{"name":"Loiseau des Ducs","address":{"thoroughfare":"3 Rue Vauban","postalcode":"21000","locality":"Dijon"},"link":"https://restaurant.michelin.fr/2jd4ivca/loiseau-des-ducs-dijon"},{"name":"La Palmeraie","address":{"thoroughfare":"81 Boulevard de Gigaro","postalcode":"83420","locality":"La Croix-Valmer"},"link":"https://restaurant.michelin.fr/2btuhm0/la-palmeraie-la-croix-valmer"},{"name":"Le Pré - Xavier Beaudiment","address":{"thoroughfare":"3 Route de la Baraque","postalcode":"63830","locality":"Durtol"},"link":"https://restaurant.michelin.fr/2ev16nl/le-pre-xavier-beaudiment-durtol"},{"name":"Auberge Tiegezh","address":{"thoroughfare":"7 Place de la Gare","postalcode":"56380","locality":"Guer"},"link":"https://restaurant.michelin.fr/34milgg2/auberge-tiegezh-guer"},{"name":"Le Kaïku","address":{"thoroughfare":"17 r. de la République","postalcode":"64500","locality":"Saint-Jean-de-Luz"},"link":"https://restaurant.michelin.fr/2atmq22/le-kaiku-saint-jean-de-luz"},{"name":"Les Fresques","address":{"thoroughfare":"D18","postalcode":"24240","locality":"Monestier"},"link":"https://restaurant.michelin.fr/2ax5yy8/les-fresques-monestier"},{"name":"Le Moulin de l'Abbaye","address":{"thoroughfare":"1 avenue Pierre de Bourdeilles","postalcode":"24310","locality":"BRANTOME"},"link":"https://restaurant.michelin.fr/2bk4rlv/le-moulin-de-labbaye-brantome-en-perigord"},{"name":"L'Amphitryon","address":{"thoroughfare":"chemin de Gramont","postalcode":"31770","locality":"Colomiers"},"link":"https://restaurant.michelin.fr/2b3pf5k/lamphitryon-colomiers"},{"name":"La Gouesnière","address":{"thoroughfare":"1 Le Limonay","postalcode":"35350","locality":"Saint-Méloir-des-Ondes"},"link":"https://restaurant.michelin.fr/2byuiv7/la-gouesniere-saint-meloir-des-ondes"},{"name":"Le Pily","address":{"thoroughfare":"39 Grande-Rue","postalcode":"50100","locality":"Cherbourg-en-Cotentin"},"link":"https://restaurant.michelin.fr/2eh8fjc/le-pily-cherbourg-en-cotentin"},{"name":"Château de Sully","address":{"thoroughfare":"D6","postalcode":"14400","locality":"Sully"},"link":"https://restaurant.michelin.fr/2bgynqb/chateau-de-sully-sully"},{"name":"Les Jardins de l'Espadon","address":{"thoroughfare":"15 place Vendôme","postalcode":"75001","locality":"Paris"},"link":"https://restaurant.michelin.fr/2a7bw8d/les-jardins-de-lespadon-paris-01"},{"name":"La Grange de Belle-Église","address":{"thoroughfare":"28 bd René-Aimé-Lagabrielle","postalcode":"60540","locality":"Belle-Église"},"link":"https://restaurant.michelin.fr/28vem1k/la-grange-de-belle-eglise-belle-eglise"},{"name":"Paloma","address":{"thoroughfare":"47 Avenue du Moulin de la Croix","postalcode":"06250","locality":"Mougins"},"link":"https://restaurant.michelin.fr/280mq6yn/paloma-mougins"},{"name":"Relais Louis XIII","address":{"thoroughfare":"8 Rue des Grands Augustins","postalcode":"75006","locality":"Paris"},"link":"https://restaurant.michelin.fr/2a92anu/relais-louis-xiii-paris-06"},{"name":"Ken Kawasaki","address":{"thoroughfare":"15 r. Caulaincourt","postalcode":"75018","locality":"Paris"},"link":"https://restaurant.michelin.fr/ximkypex/ken-kawasaki-paris-18"},{"name":"La Table des Cordeliers","address":{"thoroughfare":"1 r. des Cordeliers","postalcode":"32100","locality":"Condom"},"link":"https://restaurant.michelin.fr/2d7x1hk/la-table-des-cordeliers-condom"},{"name":"Le Fanal","address":{"thoroughfare":"17 Avenue du Fontaulé","postalcode":"66650","locality":"Banyuls-sur-Mer"},"link":"https://restaurant.michelin.fr/yw26sgs/le-fanal-banyuls-sur-mer"},{"name":"Benoit","address":{"thoroughfare":"20 Rue St-Martin","postalcode":"75004","locality":"Paris 04"},"link":"https://restaurant.michelin.fr/2a8isn4/benoit-paris-04"},{"name":"Le Moulin du Roc","address":{"thoroughfare":"Avenue Eugène Le Roy","postalcode":"24530","locality":"Champagnac-de-Belair"},"link":"https://restaurant.michelin.fr/2bk7w2q/le-moulin-du-roc-champagnac-de-belair"},{"name":"Ô Flaveurs","address":{"thoroughfare":"Château de Chilly","postalcode":"74140","locality":"Douvaine"},"link":"https://restaurant.michelin.fr/2dr6qsw/o-flaveurs-douvaine"},{"name":"Le St-Placide","address":{"thoroughfare":"6 place du poncel","postalcode":"35400","locality":"Saint-Malo"},"link":"https://restaurant.michelin.fr/2av98t5/le-st-placide-saint-malo"},{"name":"La Maison de Bournissac","address":{"thoroughfare":"montée d'Eyragues","postalcode":"13550","locality":"Les Paluds-des-Noves"},"link":"https://restaurant.michelin.fr/2csipcf/la-maison-de-bournissac-noves"},{"name":"L'Atelier du Peintre","address":{"thoroughfare":"1 Rue Schongauer","postalcode":"68000","locality":"Colmar"},"link":"https://restaurant.michelin.fr/2ewn3lj/latelier-du-peintre-colmar"},{"name":"L'Oustau de Baumanière","address":{"thoroughfare":"Village des Baux-de-Provence","postalcode":"13520","locality":"Les Baux-de-Provence"},"link":"https://restaurant.michelin.fr/28tn79w/loustau-de-baumaniere-les-baux-de-provence"},{"name":"Le Pré du Moulin","address":{"thoroughfare":"rte de Ste-Cécile-les-Vignes","postalcode":"84830","locality":"Sérignan-du-Comtat"},"link":"https://restaurant.michelin.fr/2a6bp6b/le-pre-du-moulin-serignan-du-comtat"},{"name":"Le Belvédère","address":{"thoroughfare":"11 rte du Maquis-Jean-Pierre","postalcode":"12340","locality":"Bozouls"},"link":"https://restaurant.michelin.fr/2d4rcim/le-belvedere-bozouls"},{"name":"Pierre Reboul","address":{"thoroughfare":"260 r. Guillaume-du-Vair","postalcode":"13546","locality":"Aix-en-Provence"},"link":"https://restaurant.michelin.fr/9pmxzh3/pierre-reboul-aix-en-provence"},{"name":"Les Terraillers","address":{"thoroughfare":"11 Route Chemin-Neuf","postalcode":"06410","locality":"Biot"},"link":"https://restaurant.michelin.fr/28x308q/les-terraillers-biot"},{"name":"La Table du Gourmet","address":{"thoroughfare":"5 rue 1ère Armée","postalcode":"68340","locality":"Riquewihr"},"link":"https://restaurant.michelin.fr/2aosxv6/la-table-du-gourmet-riquewihr"},{"name":"Domaine de Rochevilaine","address":{"thoroughfare":"à la Pointe de Pen Lan","postalcode":"56190","locality":"Billiers"},"link":"https://restaurant.michelin.fr/2bij0t1/domaine-de-rochevilaine-billiers"},{"name":"Le Saison","address":{"thoroughfare":"1 imp. du Vieux-Bourg","postalcode":"35760","locality":"Saint-Grégoire"},"link":"https://restaurant.michelin.fr/2ao631n/le-saison-saint-gregoire"},{"name":"Apicius","address":{"thoroughfare":"Marché Saint Pierre 1 étage","postalcode":"63000","locality":"Clermont-Ferrand"},"link":"https://restaurant.michelin.fr/2ek9zhh/apicius-clermont-ferrand"},{"name":"Le Gabriel","address":{"thoroughfare":"42 Avenue Gabriel","postalcode":"75008","locality":"Paris"},"link":"https://restaurant.michelin.fr/9sqrw32m/le-gabriel-paris-08"},{"name":"Le Moulin de la Gorce","address":{"thoroughfare":"D17","postalcode":"87800","locality":"La Roche-l'Abeille"},"link":"https://restaurant.michelin.fr/2awwemv/le-moulin-de-la-gorce-la-roche-labeille"},{"name":"Guy Savoy","address":{"thoroughfare":"Monnaie de Paris11 Quai de Conti","postalcode":"75006","locality":"Paris"},"link":"https://restaurant.michelin.fr/2afciv4/guy-savoy-paris-06"},{"name":"La Grande Cascade","address":{"thoroughfare":"Bois de Boulogne, Carrefour de Longchamp","postalcode":"75016","locality":"Paris"},"link":"https://restaurant.michelin.fr/2af5lql/la-grande-cascade-paris-16"},{"name":"L'Hysope","address":{"thoroughfare":"25 r. de l'Aurore","postalcode":"17220","locality":"La Jarrie"},"link":"https://restaurant.michelin.fr/hq8ezzf7/lhysope-la-jarrie"},{"name":"La Grignotière","address":{"thoroughfare":"6 Rue Jean Jaures","postalcode":"59590","locality":"Raismes"},"link":"https://restaurant.michelin.fr/3tkmico/la-grignotiere-raismes"},{"name":"Divellec","address":{"thoroughfare":"18 r. Fabert","postalcode":"75007","locality":"Paris"},"link":"https://restaurant.michelin.fr/2852181/divellec-paris-07"},{"name":"Auberge du Cellier","address":{"thoroughfare":"1 Rue de Sainte-Eugénie","postalcode":"66720","locality":"Montner"},"link":"https://restaurant.michelin.fr/2a02pjj/auberge-du-cellier-montner"},{"name":"64° Le Restaurant","address":{"thoroughfare":"9-13 Rue du Général de Gaulle","postalcode":"68240","locality":"Kaysersberg"},"link":"https://restaurant.michelin.fr/2c30770n/64deg-le-restaurant-kaysersberg-vignoble"},{"name":"Le George","address":{"thoroughfare":"31 Avenue George V","postalcode":"75008","locality":"Paris"},"link":"https://restaurant.michelin.fr/9q8vl0jf/le-george-paris-08"},{"name":"Auguste","address":{"thoroughfare":"54 r. Bourgogne","postalcode":"75007","locality":"Paris 07"},"link":"https://restaurant.michelin.fr/2dof8zp/auguste-paris-07"},{"name":"Jérôme Brochot","address":{"thoroughfare":"Place Beaubernard","postalcode":"71300","locality":"Montceau-les-Mines"},"link":"https://restaurant.michelin.fr/29zgkr3/jerome-brochot-montceau-les-mines"},{"name":"Le Puits du Trésor","address":{"thoroughfare":"21 rte des Quatre-Châteaux","postalcode":"11600","locality":"Lastours"},"link":"https://restaurant.michelin.fr/29pxfvs/le-puits-du-tresor-lastours"},{"name":"Auberge au Boeuf","address":{"thoroughfare":"Rue de l'Eglise","postalcode":"67770","locality":"Sessenheim"},"link":"https://restaurant.michelin.fr/2b00ufd/auberge-au-boeuf-sessenheim"},{"name":"Les Morainières","address":{"thoroughfare":"route de Marétel","postalcode":"73170","locality":"Jongieux"},"link":"https://restaurant.michelin.fr/2dd2ann/les-morainieres-jongieux"},{"name":"Carré des Feuillants","address":{"thoroughfare":"14 rue de Castiglione","postalcode":"75001","locality":"Paris 01"},"link":"https://restaurant.michelin.fr/2a7gjv9/carre-des-feuillants-paris-01"},{"name":"René et Maxime Meilleur","address":{"thoroughfare":"Saint Marcel","postalcode":"73440","locality":"Saint-Martin-de-Belleville"},"link":"https://restaurant.michelin.fr/2avet55/rene-et-maxime-meilleur-saint-martin-de-belleville"},{"name":"Le Grand Bleu","address":{"thoroughfare":"43 av. de la Gare","postalcode":"24200","locality":"Sarlat-la-Canéda"},"link":"https://restaurant.michelin.fr/2d6bc3s/le-grand-bleu-sarlat-la-caneda"},{"name":"J.-M. Pérochon","address":{"thoroughfare":"63 avenue de la Grand'Roche","postalcode":"85470","locality":"Brétignolles-sur-Mer"},"link":"https://restaurant.michelin.fr/2dyiess/j-m-perochon-bretignolles-sur-mer"},{"name":"La Table de l'Alpaga","address":{"thoroughfare":"66 Allée des Marmousets","postalcode":"74120","locality":"Megève"},"link":"https://restaurant.michelin.fr/9tlmhvt/la-table-de-lalpaga-megeve"},{"name":"Fanny Rey & Jonathan Wahid","address":{"thoroughfare":"12, boulevard Mirabeau","postalcode":"13210","locality":"SAINT REMY DE PROVENCE"},"link":"https://restaurant.michelin.fr/389tiwsv/fanny-rey-jonathan-wahid-saint-remy-de-provence"},{"name":"L'Auberge des Glazicks","address":{"thoroughfare":"7 rue de la Plage","postalcode":"29550","locality":"PLOMODIERN"},"link":"https://restaurant.michelin.fr/2akhln2/lauberge-des-glazicks-plomodiern"},{"name":"Une Table au Sud","address":{"thoroughfare":"2 quai du Port","postalcode":"13002","locality":"Marseille"},"link":"https://restaurant.michelin.fr/29w4kky/une-table-au-sud-marseille-02"},{"name":"Meurin","address":{"thoroughfare":"Rue de Lillers","postalcode":"62350","locality":"Busnes"},"link":"https://restaurant.michelin.fr/2dyfstx/meurin-busnes"},{"name":"Le Chiquito","address":{"thoroughfare":"3 r. de l'Oise, La Bonneville","postalcode":"95540","locality":"Méry-sur-Oise"},"link":"https://restaurant.michelin.fr/2ago3w6/le-chiquito-mery-sur-oise"},{"name":"Le Gourmet de Sèze","address":{"thoroughfare":"125 Rue de Sèze","postalcode":"69006","locality":"Lyon"},"link":"https://restaurant.michelin.fr/29trkin/le-gourmet-de-seze-lyon-06"},{"name":"Le Pêché Gourmand","address":{"thoroughfare":"2 rte de Gap","postalcode":"05100","locality":"Briançon"},"link":"https://restaurant.michelin.fr/9ngaiit/le-peche-gourmand-briancon"},{"name":"L'Épuisette","address":{"thoroughfare":"158 Vallon-des-Auffes","postalcode":"13007","locality":"Marseille"},"link":"https://restaurant.michelin.fr/29w1hx9/lepuisette-marseille-07"},{"name":"Sur Mesure par Thierry Marx","address":{"thoroughfare":"251 Rue Saint Honoré","postalcode":"75001","locality":"Paris"},"link":"https://restaurant.michelin.fr/6f226za/sur-mesure-par-thierry-marx-paris-01"},{"name":"Agapé","address":{"thoroughfare":"51 Rue Jouffroy-d'Abbans","postalcode":"75017","locality":"Paris 17"},"link":"https://restaurant.michelin.fr/2eo1t6h/agape-paris-17"},{"name":"Auberge à la Bonne Idée","address":{"thoroughfare":"3 rue des Meuniers","postalcode":"60350","locality":"SAINT-JEAN-AUX-BOIS"},"link":"https://restaurant.michelin.fr/2ak8isu/auberge-la-bonne-idee-saint-jean-aux-bois"},{"name":"Akrame","address":{"thoroughfare":"7 r. Tronchet","postalcode":"75008","locality":"Paris"},"link":"https://restaurant.michelin.fr/2851396/akrame-paris-08"},{"name":"Le Patio","address":{"thoroughfare":"10 bd de la Plage","postalcode":"33120","locality":"Arcachon"},"link":"https://restaurant.michelin.fr/28q4ohd/le-patio-arcachon"},{"name":"L'Auberge de Bagatelle","address":{"thoroughfare":"489 av. Bollée","postalcode":"72000","locality":"Le Mans"},"link":"https://restaurant.michelin.fr/3616226/lauberge-de-bagatelle-le-mans"},{"name":"Le Pot d'Étain","address":{"thoroughfare":"4 av. de la République","postalcode":"90400","locality":"Danjoutin"},"link":"https://restaurant.michelin.fr/28vc6i9/le-pot-detain-danjoutin"},{"name":"Le Skiff Club","address":{"thoroughfare":"1 av. Louis-Gaume","postalcode":"33260","locality":"La Teste-de-Buch"},"link":"https://restaurant.michelin.fr/2851256/le-skiff-club-la-teste-de-buch"},{"name":"Les Ducs de Lorraine","address":{"thoroughfare":"5 av. Provence","postalcode":"88000","locality":"Épinal"},"link":"https://restaurant.michelin.fr/29fq33a/les-ducs-de-lorraine-epinal"},{"name":"Les Pêcheurs","address":{"thoroughfare":"10 boulevard du Maréchal-Juin","postalcode":"06600","locality":"Antibes"},"link":"https://restaurant.michelin.fr/29ol879/les-pecheurs-antibes"},{"name":"Les Cèdres","address":{"thoroughfare":"25 Rue Henri MACHON","postalcode":"26600","locality":"Granges-les-Beaumont"},"link":"https://restaurant.michelin.fr/2appio4/les-cedres-granges-les-beaumont"},{"name":"Maison Kieny","address":{"thoroughfare":"7 Rue du Général de Gaulle","postalcode":"68400","locality":"Riedisheim"},"link":"https://restaurant.michelin.fr/2a22p1u/maison-kieny-riedisheim"},{"name":"Maison Rostang","address":{"thoroughfare":"20 rue Rennequin","postalcode":"75017","locality":"Paris"},"link":"https://restaurant.michelin.fr/2afdah0/maison-rostang-paris-17"},{"name":"La Table","address":{"thoroughfare":"32 Rue de la Barre","postalcode":"59000","locality":"Lille"},"link":"https://restaurant.michelin.fr/ua271jkd/la-table-lille"},{"name":"Maximin Hellio","address":{"thoroughfare":"64 Rue Gambetta","postalcode":"14800","locality":"DEAUVILLE"},"link":"https://restaurant.michelin.fr/u945qtuv/maximin-hellio-deauville"},{"name":"Maximilien","address":{"thoroughfare":"19a rte Ostheim","postalcode":"68340","locality":"Zellenberg"},"link":"https://restaurant.michelin.fr/2aoyre2/maximilien-zellenberg"},{"name":"L'Aparté","address":{"thoroughfare":"21 Rue de l’Europe","postalcode":"31850","locality":"MONTRABE"},"link":"https://restaurant.michelin.fr/xay649ax/laparte-montrabe"},{"name":"Ô Saveurs","address":{"thoroughfare":"8 place Ormeaux au village","postalcode":"31180","locality":"ROUFFIAC-TOLOSAN"},"link":"https://restaurant.michelin.fr/2b3jb0y/o-saveurs-rouffiac-tolosan"},{"name":"Jean Sulpice","address":{"thoroughfare":"303 rte du Port","postalcode":"74290","locality":"Talloires"},"link":"https://restaurant.michelin.fr/3636676/jean-sulpice-talloires-montmin"},{"name":"Château d'Adoménil","address":{"thoroughfare":"","postalcode":"54300","locality":"Lunéville"},"link":"https://restaurant.michelin.fr/2c5ztru/chateau-dadomenil-luneville"},{"name":"Villa Archange","address":{"thoroughfare":"Rue de l'Ouest","postalcode":"06110","locality":"Le Cannet"},"link":"https://restaurant.michelin.fr/2f4ok2n/villa-archange-le-cannet"},{"name":"Le Millénaire","address":{"thoroughfare":"4 rue Bertin","postalcode":"51100","locality":"Reims"},"link":"https://restaurant.michelin.fr/2ank1c1/le-millenaire-reims"},{"name":"G.a. au Manoir de Rétival","address":{"thoroughfare":"2 rue St. Clair","postalcode":"76490","locality":"Caudebec-en-Caux"},"link":"https://restaurant.michelin.fr/9rnckmj/ga-au-manoir-de-retival-caudebec-en-caux"},{"name":"Le Domaine de la Corniche","address":{"thoroughfare":"5 rte de la Corniche","postalcode":"78270","locality":"Rolleboise"},"link":"https://restaurant.michelin.fr/2cmxk0v/le-domaine-de-la-corniche-rolleboise"},{"name":"Le Pressoir d'Argent - Gordon Ramsay","address":{"thoroughfare":"2,5 Place de la Comédie","postalcode":"33000","locality":"Bordeaux"},"link":"https://restaurant.michelin.fr/2epcrm9/le-pressoir-dargent-gordon-ramsay-bordeaux"},{"name":"Auberge du Vert Mont","address":{"thoroughfare":"1318 r. du Mont-Noir","postalcode":"59299","locality":"Boeschepe"},"link":"https://restaurant.michelin.fr/13ppe4f4/auberge-du-vert-mont-boeschepe"},{"name":"L'Essentiel","address":{"thoroughfare":"29 Rue Mirabeau","postalcode":"14800","locality":"DEAUVILLE"},"link":"https://restaurant.michelin.fr/40jnqvq/lessentiel-deauville"},{"name":"Alexandre","address":{"thoroughfare":"2 rue Xavier Tronc","postalcode":"30128","locality":"Garons"},"link":"https://restaurant.michelin.fr/2a57m2j/alexandre-garons"},{"name":"Maison Christian Étienne","address":{"thoroughfare":"10 Rue de Mons","postalcode":"84000","locality":"Avignon"},"link":"https://restaurant.michelin.fr/28s2o1u/maison-christian-etienne-avignon"},{"name":"Yoann Conte","address":{"thoroughfare":"13 Vieille-Route-des-Pensières","postalcode":"74290","locality":"Veyrier-du-Lac"},"link":"https://restaurant.michelin.fr/2fcm39b/yoann-conte-veyrier-du-lac"},{"name":"Le Grand Cap","address":{"thoroughfare":"chemin du Phare","postalcode":"11370","locality":"Leucate"},"link":"https://restaurant.michelin.fr/2851511/le-grand-cap-leucate"},{"name":"L'Atelier de Jean-Luc Rabanel","address":{"thoroughfare":"7 r. des Carmes","postalcode":"13200","locality":"Arles"},"link":"https://restaurant.michelin.fr/2e06dui/latelier-de-jean-luc-rabanel-arles"},{"name":"Maison Decoret","address":{"thoroughfare":"15 rue du Parc","postalcode":"03200","locality":"Vichy"},"link":"https://restaurant.michelin.fr/2b7zqic/maison-decoret-vichy"},{"name":"La Merise","address":{"thoroughfare":"7 r. d'Eschbach","postalcode":"67580","locality":"Laubach"},"link":"https://restaurant.michelin.fr/3614676/la-merise-laubach"},{"name":"La Roya","address":{"thoroughfare":"plage de la Roya","postalcode":"20217","locality":"Saint-Florent"},"link":"https://restaurant.michelin.fr/2bsyl7y/la-roya-saint-florent"},{"name":"Le Prieuré","address":{"thoroughfare":"r. de la Mairie","postalcode":"42820","locality":"Ambierle"},"link":"https://restaurant.michelin.fr/28od0rp/le-prieure-ambierle"},{"name":"Le Brittany","address":{"thoroughfare":"bd Ste-Barbe","postalcode":"29681","locality":"Roscoff"},"link":"https://restaurant.michelin.fr/2cnbixn/le-brittany-roscoff"},{"name":"1920","address":{"thoroughfare":"373 chemin des follières","postalcode":"74120","locality":"Megève"},"link":"https://restaurant.michelin.fr/3409276/1920-megeve"},{"name":"Les Clefs d'Argent","address":{"thoroughfare":"333 Avenue des Martyrs de la Résistance","postalcode":"40000","locality":"Mont-de-Marsan"},"link":"https://restaurant.michelin.fr/2e0bvx8/les-clefs-dargent-mont-de-marsan"},{"name":"Le Chiberta","address":{"thoroughfare":"3 Rue Arsène Houssaye","postalcode":"75008","locality":"Paris 08"},"link":"https://restaurant.michelin.fr/2abl39j/le-chiberta-paris-08"},{"name":"La Table d'Olivier","address":{"thoroughfare":"3 r. St-Ambroise","postalcode":"19100","locality":"Brive-la-Gaillarde"},"link":"https://restaurant.michelin.fr/5f24ty3/la-table-dolivier-brive-la-gaillarde"},{"name":"La Grande Maison de Bernard Magrez","address":{"thoroughfare":"10 Rue Labottière","postalcode":"33000","locality":"Bordeaux"},"link":"https://restaurant.michelin.fr/a7u4fcer/la-grande-maison-de-bernard-magrez-bordeaux"},{"name":"Arpège","address":{"thoroughfare":"84 Rue de Varenne","postalcode":"75007","locality":"Paris"},"link":"https://restaurant.michelin.fr/2aa11xs/arpege-paris-07"},{"name":"La Scène Thélème","address":{"thoroughfare":"18 Rue Troyon","postalcode":"75017","locality":"PARIS"},"link":"https://restaurant.michelin.fr/ygx47dyb/la-scene-theleme-paris-17"},{"name":"Le Bois sans Feuilles","address":{"thoroughfare":"728 Route de Villerest","postalcode":"42155","locality":"Ouches"},"link":"https://restaurant.michelin.fr/2cm53gy/le-bois-sans-feuilles-ouches"},{"name":"Skab","address":{"thoroughfare":"7 Rue de la République","postalcode":"30000","locality":"nimes"},"link":"https://restaurant.michelin.fr/olnthqo/skab-nimes"},{"name":"Patrick Jeffroy","address":{"thoroughfare":"20 rue du Kelenn","postalcode":"29660","locality":"Carantec"},"link":"https://restaurant.michelin.fr/2bm9rwc/patrick-jeffroy-carantec"},{"name":"La Renaissance","address":{"thoroughfare":"20 av. 2e-Division-Blindée","postalcode":"61200","locality":"Argentan"},"link":"https://restaurant.michelin.fr/28qk3fo/la-renaissance-argentan"},{"name":"L'Orée de la Forêt","address":{"thoroughfare":"255 r. de la Forêt","postalcode":"60600","locality":"Étouy"},"link":"https://restaurant.michelin.fr/297c2t4/loree-de-la-foret-etouy"},{"name":"Chapelle Saint-Martin","address":{"thoroughfare":"33, Saint Martin du Fault","postalcode":"87510","locality":"Nieul"},"link":"https://restaurant.michelin.fr/2c4rgah/chapelle-saint-martin-nieul"},{"name":"Aigue Marine","address":{"thoroughfare":"5 r. M. -Berthelot","postalcode":"22220","locality":"Tréguier"},"link":"https://restaurant.michelin.fr/2cz1lgu/aigue-marine-treguier"},{"name":"Le Mascaret","address":{"thoroughfare":"1 r. de Bas","postalcode":"50560","locality":"Blainville-sur-Mer"},"link":"https://restaurant.michelin.fr/2edzchf/le-mascaret-blainville-sur-mer"},{"name":"Auberge Le Prieuré","address":{"thoroughfare":"4 Grand'Rue","postalcode":"47310","locality":"Moirax"},"link":"https://restaurant.michelin.fr/2dl7htu/auberge-le-prieure-moirax"},{"name":"Restaurant H","address":{"thoroughfare":"13 r. Jean-Beausire","postalcode":"75004","locality":"Paris"},"link":"https://restaurant.michelin.fr/2851556/restaurant-h-paris-04"},{"name":"Château de Pray","address":{"thoroughfare":"Rue du Cèdre","postalcode":"37400","locality":"Amboise"},"link":"https://restaurant.michelin.fr/2bcbfo0/chateau-de-pray-amboise"},{"name":"Têtedoie","address":{"thoroughfare":"4 Rue Professeur Pierre Marion","postalcode":"69005","locality":"Lyon 05"},"link":"https://restaurant.michelin.fr/29tfnmd288/tetedoie-lyon-05"},{"name":"Le Chantecler","address":{"thoroughfare":"37 Promenade des Anglais","postalcode":"06000","locality":"NICE"},"link":"https://restaurant.michelin.fr/2a4echf50/le-chantecler-nice"},{"name":"Stéphane Tournié - Les Jardins de l'Opéra","address":{"thoroughfare":"1 place du Capitole","postalcode":"31000","locality":"Toulouse"},"link":"https://restaurant.michelin.fr/2b3631b/stephane-tournie-les-jardins-de-lopera-toulouse"},{"name":"La Table d'Hôtes - Le Quatrième Mur","address":{"thoroughfare":"2 pl. de la Comédie","postalcode":"33000","locality":"Bordeaux"},"link":"https://restaurant.michelin.fr/3623606/la-table-dhotes-le-quatrieme-mur-bordeaux"},{"name":"La Marine","address":{"thoroughfare":"3 r. Marie-Lemonnier","postalcode":"85330","locality":"L'Herbaudière"},"link":"https://restaurant.michelin.fr/29n79hz/la-marine-lherbaudiere"},{"name":"Logis de la Cadène","address":{"thoroughfare":"Place du Marche au Bois","postalcode":"33330","locality":"Saint Emilion"},"link":"https://restaurant.michelin.fr/3kw7mh1/logis-de-la-cadene-saint-emilion"},{"name":"Au Déjeuner de Sousceyrac","address":{"thoroughfare":"r. Pierre-Benoit","postalcode":"46190","locality":"Sousceyrac"},"link":"https://restaurant.michelin.fr/2b0i0m7/au-dejeuner-de-sousceyrac-sousceyrac-en-quercy"},{"name":"Le Coquillage","address":{"thoroughfare":"Lieu-dit Le Buot","postalcode":"35350","locality":"Saint-Méloir-des-Ondes"},"link":"https://restaurant.michelin.fr/291q1xd/le-coquillage-saint-meloir-des-ondes"},{"name":"Le Puits St-Jacques","address":{"thoroughfare":"av. Victor-Capoul","postalcode":"32600","locality":"Pujaudran"},"link":"https://restaurant.michelin.fr/29nnrkd/le-puits-st-jacques-pujaudran"},{"name":"Les Voiles d'Or","address":{"thoroughfare":"2 chemin de la Falaise","postalcode":"76200","locality":"Dieppe"},"link":"https://restaurant.michelin.fr/2dtoif7/les-voiles-dor-dieppe"},{"name":"Haut Bonheur de la Table","address":{"thoroughfare":"18 Grand-Place","postalcode":"59670","locality":"Cassel"},"link":"https://restaurant.michelin.fr/6274yuk/haut-bonheur-de-la-table-cassel"},{"name":"Auberge du Vieux Puits","address":{"thoroughfare":"5 Avenue Saint-Victor","postalcode":"11360","locality":"Fontjoncouse"},"link":"https://restaurant.michelin.fr/29ib1yg/auberge-du-vieux-puits-fontjoncouse"},{"name":"La Bonne Étape","address":{"thoroughfare":"chemin du lac","postalcode":"04160","locality":"Château-Arnoux"},"link":"https://restaurant.michelin.fr/2bp5jf6/la-bonne-etape-chateau-arnoux"},{"name":"Le Sénéchal","address":{"thoroughfare":"Sauveterre de Rouergue","postalcode":"12800","locality":"Sauveterre-de-Rouergue"},"link":"https://restaurant.michelin.fr/2cv1ygx/le-senechal-sauveterre-de-rouergue"},{"name":"Sushi B","address":{"thoroughfare":"5 r. Rameau","postalcode":"75002","locality":"Paris"},"link":"https://restaurant.michelin.fr/2852091/sushi-b-paris-02"},{"name":"Le P'tit Polyte","address":{"thoroughfare":"2 Rue de la Chapelle","postalcode":"38860","locality":"Les Deux Alpes"},"link":"https://restaurant.michelin.fr/2bufvvg87/le-ptit-polyte-les-deux-alpes"},{"name":"Les Tablettes de Jean-Louis Nomicos","address":{"thoroughfare":"16 Avenue Bugeaud","postalcode":"75016","locality":"Paris"},"link":"https://restaurant.michelin.fr/2fdwgd3/les-tablettes-de-jean-louis-nomicos-paris-16"},{"name":"La Coquerie","address":{"thoroughfare":"1 chemin du Cimetière-Marin","postalcode":"34200","locality":"Sète"},"link":"https://restaurant.michelin.fr/9tuayn9/la-coquerie-sete"},{"name":"Le Clos des Sens","address":{"thoroughfare":"13 r. J. -Mermoz","postalcode":"74940","locality":"Annecy"},"link":"https://restaurant.michelin.fr/28pf13h/le-clos-des-sens-annecy-le-vieux"},{"name":"Hostellerie du Rosenmeer","address":{"thoroughfare":"45 avenue de la Gare","postalcode":"67560","locality":"ROSHEIM"},"link":"https://restaurant.michelin.fr/2cnfm96/hostellerie-du-rosenmeer-rosheim"},{"name":"Auberge de la Brie","address":{"thoroughfare":"14 av. Alphonse Boulingre","postalcode":"77860","locality":"Couilly-Pont-aux-Dames"},"link":"https://restaurant.michelin.fr/29ask7o/auberge-de-la-brie-couilly-pont-aux-dames"},{"name":"Au 14 Février","address":{"thoroughfare":"36 r. du Bœuf","postalcode":"","locality":"Lyon 05"},"link":"https://restaurant.michelin.fr/2f8f1gn/au-14-fevrier-lyon-05"},{"name":"Les Trois Dômes","address":{"thoroughfare":"20 quai Gailleton","postalcode":"69002","locality":"Lyon"},"link":"https://restaurant.michelin.fr/29svngf/les-trois-domes-lyon-02"},{"name":"Le Roc Alto","address":{"thoroughfare":"Quartier La Ville","postalcode":"05350","locality":"SAINT-VERAN"},"link":"https://restaurant.michelin.fr/8xdk7lc4/le-roc-alto-saint-veran"},{"name":"Takao Takano","address":{"thoroughfare":"33 Rue Malesherbes","postalcode":"69006","locality":"Lyon 06"},"link":"https://restaurant.michelin.fr/1fchzdq5/takao-takano-lyon-06"},{"name":"Les Loges","address":{"thoroughfare":"6 r. du Boeuf","postalcode":"69005","locality":"Lyon 05"},"link":"https://restaurant.michelin.fr/29t3z0x/les-loges-lyon-05"},{"name":"La Bergerie","address":{"thoroughfare":"D999","postalcode":"63490","locality":"Sarpoil"},"link":"https://restaurant.michelin.fr/29nxch5/la-bergerie-sarpoil"},{"name":"Clovis","address":{"thoroughfare":"21 Grand-Rue","postalcode":"06140","locality":"Tourrettes-sur-Loup"},"link":"https://restaurant.michelin.fr/2evgb1v/clovis-tourrettes-sur-loup"},{"name":"Pages","address":{"thoroughfare":"4 r. Auguste-Vacquerie","postalcode":"75016","locality":"Paris"},"link":"https://restaurant.michelin.fr/9idrgh03/pages-paris-16"},{"name":"Frédéric Doucet","address":{"thoroughfare":"2 avenue de la Libération","postalcode":"71120","locality":"Charolles"},"link":"https://restaurant.michelin.fr/295q5w8/frederic-doucet-charolles"},{"name":"Le Passe Temps","address":{"thoroughfare":"52 Rue Tronchet","postalcode":"69006","locality":"Lyon"},"link":"https://restaurant.michelin.fr/44ahwpa/le-passe-temps-lyon-06"},{"name":"Domaine des Hauts de Loire","address":{"thoroughfare":"79 rue Gilbert Navard","postalcode":"41150","locality":"Onzain"},"link":"https://restaurant.michelin.fr/2cedaza/domaine-des-hauts-de-loire-onzain"},{"name":"Jean Chauvel","address":{"thoroughfare":"33 av. Général-Leclerc","postalcode":"92100","locality":"Boulogne-Billancourt"},"link":"https://restaurant.michelin.fr/3614956/jean-chauvel-boulogne-billancourt"},{"name":"Brikéténia","address":{"thoroughfare":"142 r. de l'Église","postalcode":"64210","locality":"Guéthary"},"link":"https://restaurant.michelin.fr/2es4wcd/briketenia-guethary"},{"name":"La Table de la Ferme","address":{"thoroughfare":"Vallée de l'Ortolo","postalcode":"20100","locality":"Sartène"},"link":"https://restaurant.michelin.fr/3623651/la-table-de-la-ferme-sartene"},{"name":"Le Quinzième - Cyril Lignac","address":{"thoroughfare":"14 rue Cauchy","postalcode":"75015","locality":"Paris"},"link":"https://restaurant.michelin.fr/2dtfbbi/le-quinzieme-cyril-lignac-paris-15"},{"name":"Table - Bruno Verjus","address":{"thoroughfare":"3 r. de Prague","postalcode":"75012","locality":"Paris"},"link":"https://restaurant.michelin.fr/3ffvej5j/table-bruno-verjus-paris-12"},{"name":"Le Cinq","address":{"thoroughfare":"31 av. George V","postalcode":"75008","locality":"Paris 08"},"link":"https://restaurant.michelin.fr/2ab2thp/le-cinq-paris-08"},{"name":"La Table de La Butte","address":{"thoroughfare":"10 rue de la Mer","postalcode":"29260","locality":"PLOUIDER"},"link":"https://restaurant.michelin.fr/2cj2itx/la-table-de-la-butte-plouider"},{"name":"Le Sérac","address":{"thoroughfare":"22 r. de la Comtesse","postalcode":"74170","locality":"Saint-Gervais-les-Bains"},"link":"https://restaurant.michelin.fr/2di661r/le-serac-saint-gervais-les-bains"},{"name":"Montée","address":{"thoroughfare":"9 r. Léopold-Robert","postalcode":"75014","locality":"Paris"},"link":"https://restaurant.michelin.fr/3615586/montee-paris-14"},{"name":"William Frachot","address":{"thoroughfare":"5 rue Michelet","postalcode":"21000","locality":"DIJON"},"link":"https://restaurant.michelin.fr/2buprmi/william-frachot-dijon"},{"name":"ES","address":{"thoroughfare":"91 r. de Grenelle","postalcode":"75007","locality":"Paris"},"link":"https://restaurant.michelin.fr/27ym5i25/es-paris-07"},{"name":"L'Archeste","address":{"thoroughfare":"79 rue de la Tour","postalcode":"75116","locality":"Paris"},"link":"https://restaurant.michelin.fr/2852206/larcheste-paris-16"},{"name":"La Table de Patrick Raingeard","address":{"thoroughfare":"1312 av. Raymond-Poincaré","postalcode":"06360","locality":"EZE-BORD-DE-MER"},"link":"https://restaurant.michelin.fr/2e2m5rq/la-table-de-patrick-raingeard-eze-bord-de-mer"},{"name":"La Villa Madie","address":{"thoroughfare":"av. du Revestel","postalcode":"13260","locality":"Cassis"},"link":"https://restaurant.michelin.fr/2eb50c1n/la-villa-madie-cassis"},{"name":"Le Gindreau","address":{"thoroughfare":"D5","postalcode":"46150","locality":"Saint-Médard"},"link":"https://restaurant.michelin.fr/2avrk5m/le-gindreau-saint-medard"},{"name":"Villa René Lalique","address":{"thoroughfare":"18 Rue Bellevue","postalcode":"67290","locality":"Wingen-sur-Moder"},"link":"https://restaurant.michelin.fr/t645yf86/villa-rene-lalique-wingen-sur-moder"},{"name":"Ithurria","address":{"thoroughfare":"pl. du Fronton","postalcode":"64250","locality":"Ainhoa"},"link":"https://restaurant.michelin.fr/2bbain5/ithurria-ainhoa"},{"name":"La Gloire","address":{"thoroughfare":"74 av. du Gén.-de-Gaulle","postalcode":"45200","locality":"Montargis"},"link":"https://restaurant.michelin.fr/29yz8b5/la-gloire-montargis"},{"name":"Auberge des Saints Pères","address":{"thoroughfare":"212 av. de Nonneville","postalcode":"93600","locality":"Aulnay-sous-Bois"},"link":"https://restaurant.michelin.fr/2aga7gz/auberge-des-saints-peres-aulnay-sous-bois"},{"name":"L'Esquisse","address":{"thoroughfare":"21 rue Royale","postalcode":"74000","locality":"Annecy"},"link":"https://restaurant.michelin.fr/9tr3fvt/lesquisse-annecy"},{"name":"Miraflores","address":{"thoroughfare":"60 r. Garibaldi","postalcode":"69006","locality":"Lyon"},"link":"https://restaurant.michelin.fr/2jcivvu3/miraflores-lyon-06"},{"name":"Au 14 Février","address":{"thoroughfare":"Le Plâtre-Durand","postalcode":"71570","locality":"Saint-Amour-Bellevue"},"link":"https://restaurant.michelin.fr/3ffziwd6/au-14-fevrier-platre-durand"},{"name":"Les Bories","address":{"thoroughfare":"rte de l'Abbaye de Sénanque","postalcode":"84220","locality":"Gordes"},"link":"https://restaurant.michelin.fr/2byq8tg/les-bories-gordes"},{"name":"Nakatani","address":{"thoroughfare":"27 Rue Pierre Leroux","postalcode":"75007","locality":"PARIS"},"link":"https://restaurant.michelin.fr/3x81832/nakatani-paris-07"},{"name":"Le Relais des Moines","address":{"thoroughfare":"route de Ste-Roseline","postalcode":"83460","locality":"Les Arcs"},"link":"https://restaurant.michelin.fr/28qae64/le-relais-des-moines-les-arcs"},{"name":"Lou Cigalon-Maison Martin","address":{"thoroughfare":"6 bd Carnot","postalcode":"06560","locality":"Valbonne"},"link":"https://restaurant.michelin.fr/41vsxiz/lou-cigalon-maison-martin-valbonne"},{"name":"L'Éveil des Sens","address":{"thoroughfare":"429 bd Paul-Lintier","postalcode":"53100","locality":"Mayenne"},"link":"https://restaurant.michelin.fr/2f77d7t/leveil-des-sens-mayenne"},{"name":"Kasbür","address":{"thoroughfare":"8 Rue de Dettwiller","postalcode":"67700","locality":"Monswiller"},"link":"https://restaurant.michelin.fr/2az3rad/kasbur-monswiller"},{"name":"La Table de Franck Putelat","address":{"thoroughfare":"80 chemin des Anglais","postalcode":"11000","locality":"Carcassonne"},"link":"https://restaurant.michelin.fr/2e06z2s/la-table-de-franck-putelat-carcassonne"},{"name":"Aux Terrasses","address":{"thoroughfare":"18 av. du 23-Janvier","postalcode":"71700","locality":"Tournus"},"link":"https://restaurant.michelin.fr/2b44str/aux-terrasses-tournus"},{"name":"Le Village","address":{"thoroughfare":"3 Grande-Rue","postalcode":"78160","locality":"Marly-le-Roi"},"link":"https://restaurant.michelin.fr/2ahm97s/le-village-marly-le-roi"},{"name":"La Fourchette du Printemps","address":{"thoroughfare":"30 r. du Printemps","postalcode":"75017","locality":"Paris"},"link":"https://restaurant.michelin.fr/2f4nbgd/la-fourchette-du-printemps-paris-17"},{"name":"Le Favre d'Anne","address":{"thoroughfare":"21 bd du Mar.-Foch","postalcode":"49000","locality":"Angers"},"link":"https://restaurant.michelin.fr/dekdkvvj/le-favre-danne-angers"},{"name":"Le Foch","address":{"thoroughfare":"37 bd Foch","postalcode":"51100","locality":"Reims"},"link":"https://restaurant.michelin.fr/2anjd1l/le-foch-reims"},{"name":"La Robe","address":{"thoroughfare":"3 pl. Reveillère-Lepeaux","postalcode":"85600","locality":"Montaigu"},"link":"https://restaurant.michelin.fr/3ffqpazw/la-robe-montaigu"},{"name":"La Passagère","address":{"thoroughfare":"33 boulevard E. -Baudoin","postalcode":"06160","locality":"Juan-les-Pins"},"link":"https://restaurant.michelin.fr/29odhbw/la-passagere-juan-les-pins"},{"name":"La Maison d'à Côté","address":{"thoroughfare":"17 rue de Chambord","postalcode":"41350","locality":"Montlivault"},"link":"https://restaurant.michelin.fr/2dxwn73/la-maison-da-cote-montlivault"},{"name":"Fontevraud Le Restaurant","address":{"thoroughfare":"38 rue St-Jean-de-l'Habit","postalcode":"49590","locality":"FONTEVRAUD-L'ABBAYE"},"link":"https://restaurant.michelin.fr/9pbvgq6a/fontevraud-le-restaurant-fontevraud-labbaye"},{"name":"Alain Ducasse au Plaza Athénée","address":{"thoroughfare":"25 avenue Montaigne","postalcode":"75008","locality":"Paris"},"link":"https://restaurant.michelin.fr/2ab76wf/alain-ducasse-au-plaza-athenee-paris-08"},{"name":"Le Colombier","address":{"thoroughfare":"r. Loucheur","postalcode":"76550","locality":"Offranville"},"link":"https://restaurant.michelin.fr/29d8fg4/le-colombier-offranville"},{"name":"Val d'Auge","address":{"thoroughfare":"805 av. du Gén.-de-Gaulle","postalcode":"59910","locality":"Bondues"},"link":"https://restaurant.michelin.fr/29rcoot/val-dauge-bondues"},{"name":"L'Oasis","address":{"thoroughfare":"6 rue Jean-Honoré Carle","postalcode":"06210","locality":"La Napoule"},"link":"https://restaurant.michelin.fr/29v9df2/loasis-mandelieu-la-napoule"},{"name":"Assiette Champenoise","address":{"thoroughfare":"40 av. Paul Vaillant-Couturier","postalcode":"51430","locality":"Tinqueux"},"link":"https://restaurant.michelin.fr/2cliodi/assiette-champenoise-tinqueux"},{"name":"Vieux Pont","address":{"thoroughfare":"","postalcode":"12390","locality":"Belcastel"},"link":"https://restaurant.michelin.fr/28vap07/vieux-pont-belcastel"},{"name":"Antoine","address":{"thoroughfare":"10 av. de New-York","postalcode":"75116","locality":"Paris 16"},"link":"https://restaurant.michelin.fr/2euo0rk/antoine-paris-16"},{"name":"Auberge St-Jean","address":{"thoroughfare":"8 r. du Pont","postalcode":"33420","locality":"Saint-Jean-de-Blaignac"},"link":"https://restaurant.michelin.fr/2athka8/auberge-st-jean-saint-jean-de-blaignac"},{"name":"La Rastègue","address":{"thoroughfare":"48 bd du Levant","postalcode":"83230","locality":"Bormes-les-Mimosas"},"link":"https://restaurant.michelin.fr/2dfjaik/la-rastegue-bormes-les-mimosas"},{"name":"Azimut","address":{"thoroughfare":"273 r. de la Madelon","postalcode":"73120","locality":"Courchevel-Saint-Bon"},"link":"https://restaurant.michelin.fr/2elahg3/azimut-le-praz"},{"name":"Au Crocodile","address":{"thoroughfare":"10 rue de L'Outre","postalcode":"67000","locality":"STRASBOURG"},"link":"https://restaurant.michelin.fr/kl196wcf/au-crocodile-strasbourg"},{"name":"Auberge de l'Île Barbe","address":{"thoroughfare":"1 Place Notre-Dame","postalcode":"69009","locality":"Lyon 09"},"link":"https://restaurant.michelin.fr/29tj1pj/auberge-de-lile-barbe-lyon-09"},{"name":"Auberge du Dun","address":{"thoroughfare":"3 rte de Dieppe","postalcode":"76740","locality":"Le Bourg-Dun"},"link":"https://restaurant.michelin.fr/28z3n7r/auberge-du-dun-le-bourg-dun"},{"name":"Rodolphe","address":{"thoroughfare":"35 r. Percière","postalcode":"76000","locality":"Rouen"},"link":"https://restaurant.michelin.fr/j9cof0s1/rodolphe-rouen"},{"name":"Château Blanchard","address":{"thoroughfare":"36 rte de St-Galmier","postalcode":"42140","locality":"Chazelles-sur-Lyon"},"link":"https://restaurant.michelin.fr/ou4s65x/chateau-blanchard-chazelles-sur-lyon"},{"name":"Comice","address":{"thoroughfare":"31 av. de Versailles","postalcode":"75016","locality":"Paris"},"link":"https://restaurant.michelin.fr/3616836/comice-paris-16"},{"name":"La Chèvre d'Or","address":{"thoroughfare":"r. du Barri","postalcode":"06360","locality":"Èze"},"link":"https://restaurant.michelin.fr/2bwkh5l/la-chevre-dor-eze"},{"name":"Auberge du Pont d'Acigné","address":{"thoroughfare":"D392","postalcode":"35530","locality":"Noyal-sur-Vilaine"},"link":"https://restaurant.michelin.fr/2ao77e3/auberge-du-pont-dacigne-noyal-sur-vilaine"},{"name":"Dominique Bouchet","address":{"thoroughfare":"11 Rue Treilhard","postalcode":"75008","locality":"Paris"},"link":"https://restaurant.michelin.fr/2doe0bh/dominique-bouchet-paris-08"},{"name":"Le Clos St-Pierre","address":{"thoroughfare":"pl. de la Mairie","postalcode":"06650","locality":"Le Rouret"},"link":"https://restaurant.michelin.fr/2aqst5c/le-clos-st-pierre-saint-pons"},{"name":"Le Jules Verne","address":{"thoroughfare":"2<E>ème</E> étage Tour Eiffel","postalcode":"75007","locality":"Paris"},"link":"https://restaurant.michelin.fr/2aa3qhg/le-jules-verne-paris-07"},{"name":"Le Bon Accueil","address":{"thoroughfare":"32 Grande-Rue","postalcode":"25160","locality":"Malbuisson"},"link":"https://restaurant.michelin.fr/29v2jed/le-bon-accueil-malbuisson"},{"name":"La Table d'Eugène","address":{"thoroughfare":"18 r. Eugène-Sue","postalcode":"75018","locality":"Paris"},"link":"https://restaurant.michelin.fr/2et2alx/la-table-deugene-paris-18"},{"name":"Le Pressoir","address":{"thoroughfare":"7 r. de l'Hôpital","postalcode":"56890","locality":"Saint-Avé"},"link":"https://restaurant.michelin.fr/2b6sa1u/le-pressoir-saint-ave"},{"name":"L'Olivier","address":{"thoroughfare":"25 Route des Carles","postalcode":"83990","locality":"Saint-Tropez"},"link":"https://restaurant.michelin.fr/2css2bw/lolivier-saint-tropez"},{"name":"Hélène Darroze","address":{"thoroughfare":"4 rue d'Assas","postalcode":"75006","locality":"Paris 06"},"link":"https://restaurant.michelin.fr/2a93ort/helene-darroze-paris-06"},{"name":"Le Camélia","address":{"thoroughfare":"7 quai Georges Clemenceau","postalcode":"78380","locality":"Bougival"},"link":"https://restaurant.michelin.fr/2agf0d1/le-camelia-bougival"},{"name":"Origine","address":{"thoroughfare":"26 Rampe Cauchoise","postalcode":"76000","locality":"Rouen"},"link":"https://restaurant.michelin.fr/3xmi14j/origine-rouen"},{"name":"L'Impertinent","address":{"thoroughfare":"5, rue d'Alsace","postalcode":"64200","locality":"Biarritz"},"link":"https://restaurant.michelin.fr/h2j2em3/limpertinent-biarritz"},{"name":"L'Émulsion","address":{"thoroughfare":"57 rte de Lyon","postalcode":"38080","locality":"Saint-Alban-de-Roche"},"link":"https://restaurant.michelin.fr/5jdkm0u/lemulsion-saint-alban-de-roche"},{"name":"Le France","address":{"thoroughfare":"8 place Cupillard","postalcode":"25130","locality":"VILLERS-LE-LAC"},"link":"https://restaurant.michelin.fr/2d32mvv/le-france-villers-le-lac"},{"name":"Garance","address":{"thoroughfare":"34 r. St-Dominique","postalcode":"75007","locality":"Paris"},"link":"https://restaurant.michelin.fr/3ffpat6p/garance-paris-07"},{"name":"Le Grand Restaurant - Jean-François Piège","address":{"thoroughfare":"7 r. d'Aguesseau","postalcode":"75008","locality":"Paris"},"link":"https://restaurant.michelin.fr/u5aaw2ah/le-grand-restaurant-jean-francois-piege-paris-08"},{"name":"Régis et Jacques Marcon","address":{"thoroughfare":"Larsiallas","postalcode":"43290","locality":"SAINT-BONNET-LE-FROID"},"link":"https://restaurant.michelin.fr/2dntkxh/regis-et-jacques-marcon-saint-bonnet-le-froid"},{"name":"Ima","address":{"thoroughfare":"20 bd de la Tour-d'Auvergne","postalcode":"35000","locality":"Rennes"},"link":"https://restaurant.michelin.fr/3616751/ima-rennes"},{"name":"Jean-Luc Tartarin","address":{"thoroughfare":"Square Saint-Roch","postalcode":"76600","locality":"Le Havre"},"link":"https://restaurant.michelin.fr/2enmc29/jean-luc-tartarin-le-havre"},{"name":"La Gourmandière - La Table d'Olivier","address":{"thoroughfare":"D126","postalcode":"56000","locality":"Vannes"},"link":"https://restaurant.michelin.fr/3n5gkk2/la-gourmandiere-la-table-dolivier-vannes"},{"name":"La Lorraine","address":{"thoroughfare":"80 rue Principale","postalcode":"57330","locality":"Zoufftgen"},"link":"https://restaurant.michelin.fr/2bavyqh/la-lorraine-zoufftgen"},{"name":"Le Park 45","address":{"thoroughfare":"45 bd de la Croisette","postalcode":"06400","locality":"Cannes"},"link":"https://restaurant.michelin.fr/2e74el7/le-park-45-cannes"},{"name":"Le Moulin des Quatre Saisons","address":{"thoroughfare":"r. Gallieni","postalcode":"72200","locality":"La Flèche"},"link":"https://restaurant.michelin.fr/29hrl09/le-moulin-des-quatre-saisons-la-fleche"},{"name":"À Contre Sens","address":{"thoroughfare":"8-10 r. des Croisiers","postalcode":"14000","locality":"Caen"},"link":"https://restaurant.michelin.fr/3wc5nsy/contre-sens-caen"},{"name":"Xavier Mathieu","address":{"thoroughfare":"Route de Murs","postalcode":"84220","locality":"Joucas"},"link":"https://restaurant.michelin.fr/2c2u7lh/xavier-mathieu-joucas"},{"name":"La Marande","address":{"thoroughfare":"lieu-dit Mirande","postalcode":"71260","locality":"Montbellet"},"link":"https://restaurant.michelin.fr/2dcnkds/la-marande-montbellet"},{"name":"Maison Prévôt","address":{"thoroughfare":"353 av. de Verdun","postalcode":"84300","locality":"Cavaillon"},"link":"https://restaurant.michelin.fr/2947j86/maison-prevot-cavaillon"},{"name":"Auberge du Paradis","address":{"thoroughfare":"Le Plâtre-Durand","postalcode":"71570","locality":"Saint-Amour-Bellevue"},"link":"https://restaurant.michelin.fr/2armsjm/auberge-du-paradis-platre-durand"},{"name":"Ar Men Du","address":{"thoroughfare":"47 rue des îles","postalcode":"29920","locality":"Névez"},"link":"https://restaurant.michelin.fr/2dgxug2/ar-men-du-nevez"},{"name":"Jin","address":{"thoroughfare":"6 Rue de la Sourdière","postalcode":"75001","locality":"Paris"},"link":"https://restaurant.michelin.fr/1t2b08px/jin-paris-01"},{"name":"Le Taillevent","address":{"thoroughfare":"15 Rue Lamennais","postalcode":"75008","locality":"Paris"},"link":"https://restaurant.michelin.fr/2ab9sgk/le-taillevent-paris-08"},{"name":"La Table du Connétable","address":{"thoroughfare":"4 Rue du Connétable","postalcode":"60500","locality":"Chantilly"},"link":"https://restaurant.michelin.fr/jgutdlg/la-table-du-connetable-chantilly"},{"name":"La Promenade","address":{"thoroughfare":"2 promenade Jean-Jaurès","postalcode":"31590","locality":"Verfeil"},"link":"https://restaurant.michelin.fr/n3jledr/la-promenade-verfeil"},{"name":"Hostellerie Jérôme","address":{"thoroughfare":"20 r. Comte de Cessole","postalcode":"06320","locality":"La Turbie"},"link":"https://restaurant.michelin.fr/2b5e0ez/hostellerie-jerome-la-turbie"},{"name":"Château de Vauchoux","address":{"thoroughfare":"","postalcode":"70170","locality":"Vauchoux"},"link":"https://restaurant.michelin.fr/2alwjjs/chateau-de-vauchoux-vauchoux"},{"name":"L'Aquarelle","address":{"thoroughfare":"71 A rte du Montil","postalcode":"17920","locality":"Breuillet"},"link":"https://restaurant.michelin.fr/2dk9wkt/laquarelle-breuillet"},{"name":"L'Alchémille","address":{"thoroughfare":"53 rte de Lapoutroie","postalcode":"68240","locality":"Kaysersberg"},"link":"https://restaurant.michelin.fr/ua3c2rxf/lalchemille-kaysersberg-vignoble"},{"name":"1131","address":{"thoroughfare":"D 33","postalcode":"21360","locality":"La Bussière-sur-Ouche"},"link":"https://restaurant.michelin.fr/2e4epe8/1131-la-bussiere-sur-ouche"},{"name":"Le Petit Nice","address":{"thoroughfare":"Anse de Maldormé - Corniche J. F. Kennedy","postalcode":"13007","locality":"Marseille 07"},"link":"https://restaurant.michelin.fr/2c76rmd/le-petit-nice-marseille-07"},{"name":"Maison Clovis","address":{"thoroughfare":"19 bd Brotteaux","postalcode":"69006","locality":"Lyon"},"link":"https://restaurant.michelin.fr/2eqhwui/maison-clovis-lyon-06"},{"name":"Au Trou Gascon","address":{"thoroughfare":"40 rue Taine","postalcode":"75012","locality":"Paris"},"link":"https://restaurant.michelin.fr/2acpe43/au-trou-gascon-paris-12"},{"name":"Restaurant de Lauzun","address":{"thoroughfare":"3 bd de l'Esplanade","postalcode":"34150","locality":"Gignac"},"link":"https://restaurant.michelin.fr/29k1mm1/restaurant-de-lauzun-gignac"},{"name":"Ze Kitchen Galerie","address":{"thoroughfare":"4 r. des Grands-Augustins","postalcode":"75006","locality":"Paris"},"link":"https://restaurant.michelin.fr/2a9xcsf/ze-kitchen-galerie-paris-06"},{"name":"Le Marcq","address":{"thoroughfare":"944 av. de la République","postalcode":"59700","locality":"Marcq-en-Barœul"},"link":"https://restaurant.michelin.fr/2dkifdh/le-marcq-marcq-en-baroeul"},{"name":"Roscanvec","address":{"thoroughfare":"17 r. des Halles","postalcode":"56000","locality":"Vannes"},"link":"https://restaurant.michelin.fr/2b6s3ty/roscanvec-vannes"},{"name":"Michel Sarran","address":{"thoroughfare":"21 bd A.-Duportal","postalcode":"31000","locality":"Toulouse"},"link":"https://restaurant.michelin.fr/2b380z8/michel-sarran-toulouse"},{"name":"U Santa Marina","address":{"thoroughfare":"Marina di Santa Giulia","postalcode":"20137","locality":"Porto-Vecchio"},"link":"https://restaurant.michelin.fr/2e7dmcj/u-santa-marina-porto-vecchio"},{"name":"Garopapilles","address":{"thoroughfare":"62 r. Abbé-de-L'Epée","postalcode":"33000","locality":"Bordeaux"},"link":"https://restaurant.michelin.fr/3wsi04j3/garopapilles-bordeaux"},{"name":"Terre-Mer","address":{"thoroughfare":"16 r. du Jeu-de-Paume","postalcode":"56400","locality":"Auray"},"link":"https://restaurant.michelin.fr/2f8kr60/terre-mer-auray"},{"name":"Palégrié","address":{"thoroughfare":"Les Ritons","postalcode":"38250","locality":"Corrençon-en-Vercors"},"link":"https://restaurant.michelin.fr/2d2itah0/palegrie-correncon-en-vercors"},{"name":"La Table des Blot - Auberge du Château","address":{"thoroughfare":"1 Grande-Rue","postalcode":"78720","locality":"Dampierre-en-Yvelines"},"link":"https://restaurant.michelin.fr/2agz71j/la-table-des-blot-auberge-du-chateau-dampierre-en-yvelines"},{"name":"En Pleine Nature","address":{"thoroughfare":"6 pl. de la Mairie","postalcode":"31130","locality":"Fonsegrives"},"link":"https://restaurant.michelin.fr/s5y0mmq/en-pleine-nature-fonsegrives"},{"name":"SaQuaNa","address":{"thoroughfare":"22 pl. Hamelin","postalcode":"14600","locality":"Honfleur"},"link":"https://restaurant.michelin.fr/2e11xi8/saquana-honfleur"},{"name":"Avel Vor","address":{"thoroughfare":"25 r. de Locmalo","postalcode":"56290","locality":"Port-Louis"},"link":"https://restaurant.michelin.fr/2da93ps/avel-vor-port-louis"},{"name":"La Tour","address":{"thoroughfare":"31 Nouvelle-Place","postalcode":"18300","locality":"Sancerre"},"link":"https://restaurant.michelin.fr/2axydtb/la-tour-sancerre"},{"name":"Le Chateaubriand","address":{"thoroughfare":"129 av. Parmentier","postalcode":"75011","locality":"Paris"},"link":"https://restaurant.michelin.fr/2e6jtym/le-chateaubriand-paris-11"},{"name":"La Table by La Villa","address":{"thoroughfare":"chemin de Notre-Dame-de-la-Serra","postalcode":"20260","locality":"Calvi"},"link":"https://restaurant.michelin.fr/299w7ls/la-table-la-villa-calvi"},{"name":"Racine","address":{"thoroughfare":"6 pl. Godinot","postalcode":"51100","locality":"Reims"},"link":"https://restaurant.michelin.fr/eiak4cnv/racine-reims"},{"name":"Pèir","address":{"thoroughfare":"r. de la Combe","postalcode":"84220","locality":"Gordes"},"link":"https://restaurant.michelin.fr/r9fvmyyv/peir-gordes"},{"name":"La Petite Maison de Cucuron","address":{"thoroughfare":"pl. de l'Étang","postalcode":"84160","locality":"Cucuron"},"link":"https://restaurant.michelin.fr/29c2o3y/la-petite-maison-de-cucuron-cucuron"},{"name":"Le Pergolèse","address":{"thoroughfare":"40 Rue Pergolèse","postalcode":"75116","locality":"Paris"},"link":"https://restaurant.michelin.fr/2aeinde/le-pergolese-paris-16"},{"name":"L'Atelier de Joël Robuchon - St-Germain","address":{"thoroughfare":"5 r. de Montalembert","postalcode":"75007","locality":"Paris"},"link":"https://restaurant.michelin.fr/2dduyu5/latelier-de-joel-robuchon-st-germain-paris-07"},{"name":"La Table de l'Espadon","address":{"thoroughfare":"15 Place Vendôme","postalcode":"75001","locality":"Paris"},"link":"https://restaurant.michelin.fr/yhoi9vry/la-table-de-lespadon-paris-01"},{"name":"Les Chênes Verts","address":{"thoroughfare":"rte de Villecroze","postalcode":"83690","locality":"Tourtour"},"link":"https://restaurant.michelin.fr/2b4ne7u/les-chenes-verts-tourtour"},{"name":"L'O des Vignes","address":{"thoroughfare":"r. du Bourg","postalcode":"71960","locality":"Fuissé"},"link":"https://restaurant.michelin.fr/3fa7ojh3/lo-des-vignes-fuisse"},{"name":"Mariottat","address":{"thoroughfare":"25 r. L.-Vivent","postalcode":"47000","locality":"Agen"},"link":"https://restaurant.michelin.fr/28n68fe/mariottat-agen"},{"name":"Le Mas du Langoustier","address":{"thoroughfare":"","postalcode":"83400","locality":"Hyères"},"link":"https://restaurant.michelin.fr/2c1rglq/le-mas-du-langoustier-hyeres"},{"name":"Le Pousse-Pied","address":{"thoroughfare":"84 bd des Vendéens","postalcode":"85360","locality":"La Tranche-sur-Mer"},"link":"https://restaurant.michelin.fr/376ocf6f/le-pousse-pied-la-tranche-sur-mer"},{"name":"Le Pavillon","address":{"thoroughfare":"av. du Verger","postalcode":"62520","locality":"Le Touquet-Paris-Plage"},"link":"https://restaurant.michelin.fr/2b3t8kh/le-pavillon-le-touquet-paris-plage"},{"name":"Pertinence","address":{"thoroughfare":"29 r. de l'Exposition","postalcode":"75007","locality":"Paris"},"link":"https://restaurant.michelin.fr/5sermc3/pertinence-paris-07"},{"name":"Umami","address":{"thoroughfare":"8 r. des Dentelles","postalcode":"67000","locality":"Strasbourg"},"link":"https://restaurant.michelin.fr/2ei9xex/umami-strasbourg"},{"name":"La Table des Merville","address":{"thoroughfare":"3 place Richard","postalcode":"31320","locality":"Castanet-Tolosan"},"link":"https://restaurant.michelin.fr/2b3ktxc/la-table-des-merville-castanet-tolosan"},{"name":"Le Jasmin","address":{"thoroughfare":"Lieu-dit Lalande","postalcode":"47140","locality":"Saint-Sylvestre-sur-Lot"},"link":"https://restaurant.michelin.fr/u6v6rb42/le-jasmin-saint-sylvestre-sur-lot"},{"name":"L'Odas","address":{"thoroughfare":"Passage Maurice Lenfant","postalcode":"76000","locality":"Rouen"},"link":"https://restaurant.michelin.fr/33tyod0j/lodas-rouen"},{"name":"Le Castellaras","address":{"thoroughfare":"461 chemin Peymeyan","postalcode":"83440","locality":"Fayence"},"link":"https://restaurant.michelin.fr/29h5xkp/le-castellaras-fayence"},{"name":"L'Ekrin by Laurent Azoulay","address":{"thoroughfare":"Route de la Montée","postalcode":"73550","locality":"MERIBEL"},"link":"https://restaurant.michelin.fr/9isyik39/lekrin-laurent-azoulay-meribel-mottaret"},{"name":"Shang Palace","address":{"thoroughfare":"10 Avenue d'Iéna","postalcode":"75016","locality":"Paris 16"},"link":"https://restaurant.michelin.fr/2fcezsf205/shang-palace-paris-16"},{"name":"Ivan Vautier","address":{"thoroughfare":"3 avenue Henry-Chéron","postalcode":"14000","locality":"Caen"},"link":"https://restaurant.michelin.fr/290z3mh/ivan-vautier-caen"},{"name":"Flaveurs","address":{"thoroughfare":"32 Grande-Rue","postalcode":"26000","locality":"Valence"},"link":"https://restaurant.michelin.fr/2e043qi/flaveurs-valence"},{"name":"L'Étang du Moulin","address":{"thoroughfare":"5 chemin de l'Etang du Moulin","postalcode":"25210","locality":"Bonnétage"},"link":"https://restaurant.michelin.fr/28xqe8v/letang-du-moulin-bonnetage"},{"name":"L'Atelier d'Edmond","address":{"thoroughfare":"au Fornet","postalcode":"73150","locality":"Val-d'Isère"},"link":"https://restaurant.michelin.fr/2e1ykis/latelier-dedmond-val-disere"}]}